{"type":"FeatureCollection","features":[{"type":"Feature","properties":{"source":"OpenStreetMap contributors (ODbL)","ways":[11371365,352067004,352070311,352070309,352070316]},"geometry":{"type":"LineString","coordinates":[[-81.0740035,29.1850845],[-81.074135,29.184597],[-81.0741891,29.1843896],[-81.0747238,29.1825517],[-81.0747698,29.1823445],[-81.0748258,29.1821004],[-81.0748618,29.1818471],[-81.0748963,29.1815288],[-81.0749014,29.1813883],[-81.074899,29.1812322],[-81.0748905,29.1810751],[-81.074881,29.1809679],[-81.0748651,29.1808528],[-81.0748333,29.1807184],[-81.0747878,29.1805677],[-81.0747199,29.1803934],[-81.0746465,29.1802322],[-81.074561,29.1800879],[-81.0744358,29.1799121],[-81.0743011,29.1797407],[-81.0741744,29.1796059],[-81.0740204,29.1794575],[-81.0738594,29.1793229],[-81.0736813,29.1791922],[-81.0735107,29.1790872],[-81.0733373,29.1789955],[-81.0730866,29.1788809],[-81.0729282,29.1788215],[-81.0727343,29.178763],[-81.0725024,29.1787037],[-81.0722459,29.1786589],[-81.0720385,29.1786354],[-81.0718089,29.1786273],[-81.0715842,29.1786346],[-81.0713594,29.1786556],[-81.0711387,29.1786919],[-81.070926,29.178739],[-81.0706624,29.1788158],[-81.0704001,29.1789168],[-81.0701737,29.1790277],[-81.0700238,29.1791127],[-81.069871,29.1792121],[-81.069722,29.1793219],[-81.0695509,29.1794633],[-81.0693806,29.1796125],[-81.0691687,29.179825],[-81.068951,29.1800755],[-81.0687344,29.180335],[-81.0678648,29.181377],[-81.0654823,29.184251],[-81.0639943,29.1860515],[-81.0632394,29.1869508],[-81.0630285,29.1872542],[-81.0628573,29.1875201],[-81.0627981,29.1876247],[-81.0627346,29.1877691],[-81.0626394,29.1880178],[-81.0625823,29.1882128],[-81.0625461,29.1883634],[-81.0625249,29.1884768],[-81.0625121,29.1885759],[-81.0625045,29.188717],[-81.0625033,29.1888743],[-81.0625151,29.1890655],[-81.0625486,29.1892696],[-81.0625945,29.1894407],[-81.0626806,29.1897071],[-81.0627547,29.1898642],[-81.062854,29.190039],[-81.0629897,29.1902421],[-81.0631226,29.190418],[-81.0632575,29.1905718],[-81.0634181,29.1907257],[-81.0635628,29.1908381],[-81.0637563,29.1909729],[-81.0639747,29.1911048],[-81.0641567,29.1912003],[-81.0643242,29.19127],[-81.0644892,29.1913346],[-81.0647085,29.1913997],[-81.0648973,29.1914447],[-81.0651294,29.1914843],[-81.0653389,29.1915076],[-81.0654879,29.1915135],[-81.0656421,29.191517],[-81.0658548,29.191507],[-81.0659861,29.1914925],[-81.0661629,29.1914671],[-81.0663351,29.1914346],[-81.0664797,29.1913993],[-81.0666486,29.1913492],[-81.0668389,29.1912886],[-81.0669878,29.1912357],[-81.0671573,29.1911696],[-81.0673428,29.1910853],[-81.0680111,29.1907559],[-81.0685731,29.1904447],[-81.0686796,29.1903904],[-81.0696009,29.1898799],[-81.0701882,29.1895545],[-81.0709197,29.1891492],[-81.0711951,29.1889904],[-81.0714463,29.1888336],[-81.0716499,29.1887236],[-81.0717354,29.1886649],[-81.0718138,29.1886099],[-81.0719031,29.188544],[-81.0719979,29.1884721],[-81.0720904,29.1883981],[-81.0721844,29.1883178],[-81.0722772,29.1882378],[-81.0723685,29.1881538],[-81.0724637,29.1880629],[-81.0725525,29.1879717],[-81.0726526,29.1878667],[-81.0727394,29.1877713],[-81.0728143,29.1876815],[-81.0728991,29.1875757],[-81.0729747,29.1874773],[-81.0730491,29.1873734],[-81.0731063,29.187264],[-81.0732123,29.1870976],[-81.0733048,29.186951],[-81.0734093,29.186764],[-81.073509,29.186531],[-81.073677,29.186066],[-81.0738401,29.1856023],[-81.0740035,29.1850845]]}}]}