{"type":"FeatureCollection","features":[{"type":"Feature","properties":{"layout":"jeddah-fe","source":"OpenStreetMap contributors (ODbL), routed by tools/route-layouts.mjs"},"geometry":{"type":"LineString","coordinates":[[39.1044649,21.6326984],[39.1044529,21.6327313],[39.1044409,21.6327642],[39.1044288,21.6327972],[39.1044168,21.6328301],[39.1044048,21.632863],[39.1043928,21.6328959],[39.1043808,21.6329289],[39.1043688,21.6329618],[39.1043567,21.6329947],[39.1043447,21.6330277],[39.1043327,21.6330606],[39.1043207,21.6330935],[39.1043087,21.6331264],[39.1042967,21.6331594],[39.1042846,21.6331923],[39.1042726,21.6332252],[39.1042606,21.6332581],[39.1042486,21.6332911],[39.1042366,21.633324],[39.1042246,21.6333569],[39.1042125,21.6333898],[39.1042005,21.6334228],[39.1041885,21.6334557],[39.1041761,21.6334895],[39.1041636,21.6335232],[39.1041512,21.633557],[39.1041387,21.6335908],[39.1041263,21.6336246],[39.1041138,21.6336583],[39.1041014,21.6336921],[39.104089,21.6337259],[39.1040765,21.6337596],[39.1040641,21.6337934],[39.1040516,21.6338272],[39.1040392,21.6338609],[39.1040267,21.6338947],[39.1040143,21.6339285],[39.1040019,21.6339622],[39.1039894,21.633996],[39.103977,21.6340298],[39.1039645,21.6340636],[39.1039521,21.6340973],[39.1039396,21.6341311],[39.1039272,21.6341649],[39.1039147,21.6341986],[39.1039023,21.6342324],[39.1038899,21.6342662],[39.1038774,21.6342999],[39.103865,21.6343337],[39.1038525,21.6343675],[39.1038401,21.6344013],[39.1038276,21.634435],[39.1038152,21.6344688],[39.1038047,21.6344989],[39.1037941,21.634529],[39.1037836,21.6345591],[39.1037731,21.6345892],[39.1037626,21.6346193],[39.103752,21.6346494],[39.1037415,21.6346795],[39.1037315,21.634702],[39.1037214,21.6347244],[39.1037114,21.6347469],[39.1036936,21.6347701],[39.1036757,21.6347933],[39.1036501,21.6348069],[39.1036245,21.6348206],[39.1035986,21.6348231],[39.1035727,21.6348256],[39.1035471,21.6348235],[39.1035216,21.6348214],[39.1035014,21.634813],[39.1034813,21.6348047],[39.1034528,21.6347915],[39.1034243,21.6347784],[39.1033959,21.6347652],[39.1033674,21.6347521],[39.1033389,21.6347389],[39.1033055,21.6347304],[39.1032721,21.634722],[39.1032404,21.6347239],[39.1032087,21.6347257],[39.1031852,21.6347358],[39.1031616,21.6347459],[39.1031381,21.634756],[39.1031176,21.6347692],[39.103097,21.6347825],[39.1030784,21.6348059],[39.1030599,21.6348293],[39.1030413,21.6348527],[39.1030319,21.6348773],[39.1030225,21.6349018],[39.1030205,21.6349345],[39.1030184,21.6349671],[39.1030228,21.6349981],[39.1030272,21.6350291],[39.1030316,21.6350601],[39.103036,21.6350911],[39.103044,21.6351257],[39.1030521,21.6351603],[39.1030601,21.6351948],[39.1030682,21.6352294],[39.1030762,21.635264],[39.1030874,21.6352959],[39.1030986,21.6353278],[39.1031099,21.6353597],[39.1031211,21.6353916],[39.1031323,21.6354235],[39.1031449,21.6354529],[39.1031576,21.6354824],[39.1031702,21.6355118],[39.1031828,21.6355412],[39.1031954,21.6355706],[39.1032081,21.6356001],[39.1032207,21.6356295],[39.1032306,21.6356628],[39.1032405,21.635696],[39.1032504,21.6357293],[39.1032603,21.6357626],[39.1032654,21.6357863],[39.1032704,21.6358101],[39.1032755,21.6358338],[39.1032815,21.6358623],[39.1032874,21.6358907],[39.1032934,21.6359192],[39.1032963,21.6359467],[39.1032991,21.6359743],[39.103302,21.6360018],[39.1033049,21.6360293],[39.1033053,21.6360597],[39.1033058,21.6360901],[39.1033062,21.6361204],[39.1033066,21.6361508],[39.1033071,21.6361812],[39.1033075,21.6362116],[39.103305,21.636242],[39.1033025,21.6362724],[39.1032999,21.6363029],[39.1032974,21.6363333],[39.1032921,21.6363665],[39.1032868,21.6363996],[39.1032814,21.6364328],[39.1032761,21.6364659],[39.1032708,21.6364991],[39.1032515,21.6365164],[39.1032346,21.6365359],[39.10321,21.6365557],[39.1031805,21.6365686],[39.1031481,21.6365757],[39.1031182,21.6365789],[39.1030883,21.6365821],[39.1030534,21.6365778],[39.1030184,21.6365736],[39.1029868,21.6365573],[39.1029614,21.636541],[39.1029416,21.6365215],[39.1029218,21.6365019],[39.1029113,21.636482],[39.1029008,21.6364621],[39.1028931,21.6364432],[39.1028854,21.6364244],[39.1028755,21.6363929],[39.1028632,21.6363609],[39.1028569,21.6363423],[39.1028505,21.6363237],[39.1028495,21.6363173],[39.102849,21.6362874],[39.1028485,21.6362576],[39.102848,21.6362277],[39.1028471,21.6361965],[39.1028463,21.6361653],[39.1028454,21.6361342],[39.1028445,21.636103],[39.1028437,21.6360718],[39.1028428,21.6360406],[39.1028418,21.63601],[39.1028407,21.6359794],[39.1028397,21.6359488],[39.1028387,21.6359182],[39.1028361,21.6358868],[39.1028335,21.6358553],[39.1028309,21.6358239],[39.1028269,21.6357907],[39.102823,21.6357575],[39.102819,21.6357242],[39.102815,21.635691],[39.1028111,21.6356578],[39.1028071,21.6356246],[39.1028007,21.6355912],[39.1027943,21.6355578],[39.102788,21.6355243],[39.1027816,21.6354909],[39.1027752,21.6354575],[39.1027681,21.6354268],[39.1027609,21.635396],[39.1027538,21.6353652],[39.1027466,21.6353345],[39.1027395,21.6353038],[39.1027323,21.635273],[39.1027237,21.6352387],[39.1027151,21.6352044],[39.1027064,21.63517],[39.1026978,21.6351357],[39.1026873,21.6351052],[39.1026769,21.6350747],[39.1026664,21.6350442],[39.1026559,21.6350137],[39.1026501,21.6349838],[39.1026443,21.634954],[39.1026385,21.6349241],[39.1026389,21.6348937],[39.1026394,21.6348634],[39.1026398,21.634833],[39.1026464,21.6348079],[39.1026531,21.6347829],[39.1026597,21.6347578],[39.1026719,21.6347309],[39.1026841,21.634704],[39.1026962,21.6346771],[39.1027084,21.6346502],[39.1027269,21.6346261],[39.1027455,21.634602],[39.1027632,21.6345804],[39.1027808,21.6345588],[39.1027985,21.6345372],[39.1028215,21.6345186],[39.1028444,21.6345],[39.1028674,21.6344814],[39.1028904,21.6344628],[39.1029197,21.6344424],[39.102949,21.6344219],[39.1029783,21.6344015],[39.1030076,21.634381],[39.1030369,21.6343606],[39.1030608,21.6343425],[39.1030847,21.6343245],[39.1031086,21.6343064],[39.1031325,21.6342883],[39.1031559,21.6342671],[39.1031792,21.6342459],[39.1032032,21.6342197],[39.1032273,21.6341935],[39.1032422,21.634173],[39.103257,21.6341526],[39.1032719,21.6341321],[39.1032862,21.6341071],[39.1033004,21.6340822],[39.1033147,21.6340573],[39.1033289,21.6340323],[39.1033411,21.634004],[39.1033534,21.6339757],[39.1033657,21.6339473],[39.1033779,21.633919],[39.1033844,21.6338918],[39.1033909,21.6338647],[39.1033973,21.6338376],[39.1034038,21.6338104],[39.1034115,21.6337787],[39.1034192,21.6337471],[39.1034269,21.6337154],[39.1034346,21.6336837],[39.1034423,21.6336521],[39.10345,21.6336204],[39.1034566,21.6335962],[39.1034632,21.6335719],[39.1034698,21.6335477],[39.1034769,21.6335154],[39.1034839,21.6334831],[39.103491,21.6334508],[39.1034981,21.6334184],[39.1035052,21.6333861],[39.1035122,21.6333538],[39.1035193,21.6333215],[39.1035243,21.6332962],[39.1035293,21.6332708],[39.1035343,21.6332455],[39.1035372,21.6332211],[39.1035402,21.6331968],[39.1035431,21.6331724],[39.1035421,21.6331395],[39.1035411,21.6331065],[39.1035385,21.6330766],[39.1035358,21.6330466],[39.1035332,21.6330167],[39.1035276,21.6329898],[39.1035221,21.6329628],[39.1035165,21.6329358],[39.1035109,21.6329089],[39.1034998,21.6328825],[39.1034888,21.6328561],[39.1034777,21.6328297],[39.1034667,21.6328033],[39.1034497,21.6327723],[39.1034327,21.6327413],[39.1034157,21.6327103],[39.1033986,21.6326793],[39.1033816,21.6326483],[39.1033646,21.6326174],[39.1033481,21.6325861],[39.1033521,21.6325452],[39.1033749,21.6324953],[39.1033917,21.6324482],[39.1033829,21.6324133],[39.1033657,21.6323819],[39.1033478,21.63235],[39.103321,21.632323],[39.1032683,21.6323087],[39.1032109,21.6322965],[39.1031744,21.6322743],[39.1031566,21.632243],[39.103139,21.6322115],[39.1031213,21.6321801],[39.1031037,21.6321487],[39.103086,21.6321173],[39.1030684,21.6320859],[39.1030508,21.6320545],[39.1030331,21.6320231],[39.1030155,21.6319917],[39.1029978,21.6319603],[39.1029802,21.6319289],[39.1029625,21.6318975],[39.1029449,21.631866],[39.1029272,21.6318346],[39.1029096,21.6318032],[39.1028919,21.6317718],[39.1028743,21.6317404],[39.1028566,21.631709],[39.102839,21.6316776],[39.1028238,21.6316481],[39.1028086,21.6316185],[39.1027935,21.631589],[39.1027783,21.6315594],[39.1027631,21.6315299],[39.1027495,21.6314986],[39.1027359,21.6314674],[39.1027222,21.6314361],[39.1027086,21.6314049],[39.102695,21.6313736],[39.1026833,21.6313411],[39.1026717,21.6313085],[39.10266,21.631276],[39.1026484,21.6312434],[39.1026367,21.6312109],[39.1026251,21.6311783],[39.1026134,21.6311458],[39.1026055,21.6311149],[39.1025975,21.6310839],[39.1025896,21.631053],[39.1025816,21.631022],[39.1025737,21.6309911],[39.1025657,21.6309601],[39.1025578,21.6309292],[39.1025528,21.6308954],[39.1025478,21.6308616],[39.1025428,21.6308278],[39.1025378,21.630794],[39.1025328,21.6307601],[39.1025278,21.6307263],[39.1025228,21.6306925],[39.1025178,21.6306587],[39.1025163,21.6306293],[39.1025322,21.6305989],[39.1025659,21.6305675],[39.1026013,21.6305359],[39.1026217,21.630508],[39.1026235,21.6304796],[39.102623,21.6304487],[39.1026226,21.6304177],[39.1026222,21.6303901],[39.1026238,21.6303571],[39.1026256,21.6303212],[39.1026273,21.6302853],[39.1026143,21.6302488],[39.1025731,21.6302128],[39.1025343,21.6301749],[39.1025229,21.6301381],[39.1025269,21.6301027],[39.1025309,21.6300674],[39.102535,21.6300321],[39.102539,21.6299968],[39.1025462,21.6299627],[39.1025533,21.6299286],[39.1025604,21.6298945],[39.1025676,21.6298605],[39.1025747,21.6298264],[39.1025819,21.6297923],[39.1025912,21.6297601],[39.1026004,21.629728],[39.1026097,21.6296958],[39.1026189,21.6296637],[39.1026282,21.6296315],[39.1026374,21.6295994],[39.1026467,21.6295672],[39.1026559,21.6295351],[39.1026652,21.6295029],[39.1026726,21.6294689],[39.1026801,21.6294348],[39.1026875,21.6294008],[39.1026949,21.6293667],[39.1027023,21.6293327],[39.1027098,21.6292986],[39.1027172,21.6292646],[39.1027246,21.6292305],[39.102732,21.6291965],[39.1027395,21.6291624],[39.1027469,21.6291284],[39.1027568,21.6290952],[39.1027666,21.629062],[39.1027765,21.6290287],[39.1027863,21.6289955],[39.1027962,21.6289623],[39.1028061,21.6289291],[39.1028159,21.6288959],[39.1028258,21.6288626],[39.1028356,21.6288294],[39.1028455,21.6287962],[39.1028571,21.6287647],[39.1028686,21.6287333],[39.1028802,21.6287018],[39.1028917,21.6286704],[39.1029033,21.6286389],[39.1029149,21.6286074],[39.1029264,21.628576],[39.102938,21.6285445],[39.1029495,21.6285131],[39.1029611,21.6284816],[39.1029744,21.6284493],[39.1029877,21.6284169],[39.103001,21.6283846],[39.1030143,21.6283522],[39.1030276,21.6283199],[39.1030409,21.6282876],[39.1030542,21.6282552],[39.1030675,21.6282229],[39.1030814,21.628193],[39.1030954,21.6281631],[39.1031093,21.6281331],[39.1031233,21.6281032],[39.1031372,21.6280733],[39.1031524,21.6280437],[39.1031677,21.6280141],[39.1031829,21.6279844],[39.1031981,21.6279548],[39.1032134,21.6279252],[39.1032286,21.6278955],[39.1032439,21.6278659],[39.1032591,21.6278363],[39.1032779,21.6278062],[39.1032968,21.627776],[39.1033156,21.6277459],[39.1033345,21.6277157],[39.1033533,21.6276856],[39.1033722,21.6276554],[39.103391,21.6276253],[39.1034104,21.6275969],[39.1034298,21.6275685],[39.1034493,21.6275401],[39.1034687,21.6275117],[39.1034881,21.6274833],[39.1035076,21.627455],[39.103527,21.6274266],[39.1035464,21.6273982],[39.1035658,21.6273698],[39.1035852,21.6273414],[39.1036047,21.627313],[39.1036241,21.6272846],[39.1036461,21.6272572],[39.1036682,21.6272299],[39.1036902,21.6272025],[39.1037123,21.6271752],[39.1037343,21.6271479],[39.1037564,21.6271205],[39.1037784,21.6270932],[39.1038004,21.6270658],[39.1038225,21.6270385],[39.1038445,21.6270111],[39.1038666,21.6269838],[39.1038886,21.6269564],[39.1039107,21.6269291],[39.1039327,21.6269017],[39.1039569,21.6268769],[39.1039811,21.6268521],[39.1040052,21.6268272],[39.1040294,21.6268024],[39.1040536,21.6267776],[39.1040778,21.6267528],[39.1041019,21.6267279],[39.1041261,21.6267031],[39.1041523,21.6266802],[39.1041785,21.6266574],[39.1042047,21.6266345],[39.1042309,21.6266116],[39.1042571,21.6265888],[39.1042833,21.6265659],[39.1043095,21.626543],[39.1043357,21.6265202],[39.1043619,21.6264973],[39.1043881,21.6264744],[39.1044143,21.6264516],[39.1044405,21.6264287],[39.1044666,21.626408],[39.1044928,21.6263874],[39.1045189,21.6263667],[39.1045451,21.6263461],[39.1045712,21.6263254],[39.1046005,21.6263041],[39.1046298,21.6262828],[39.1046592,21.6262615],[39.1046885,21.6262402],[39.1047178,21.6262189],[39.1047471,21.6261976],[39.1047781,21.6261767],[39.104809,21.6261558],[39.1048399,21.626135],[39.1048709,21.6261141],[39.1049018,21.6260932],[39.1049328,21.6260724],[39.1049637,21.6260515],[39.1049947,21.6260306],[39.1050253,21.6260114],[39.1050559,21.6259922],[39.1050865,21.625973],[39.1051171,21.6259538],[39.1051477,21.6259346],[39.1051783,21.6259155],[39.1052089,21.6258963],[39.1052395,21.6258771],[39.1052701,21.6258579],[39.1053007,21.6258387],[39.1053313,21.6258195],[39.1053593,21.6258015],[39.1053872,21.6257835],[39.1054152,21.6257655],[39.1054431,21.6257475],[39.1054711,21.6257295],[39.1054991,21.6257115],[39.105527,21.6256935],[39.105555,21.6256755],[39.1055865,21.6256548],[39.105618,21.6256341],[39.1056495,21.6256134],[39.105681,21.6255927],[39.1057124,21.6255721],[39.1057439,21.6255514],[39.1057754,21.6255307],[39.1058069,21.62551],[39.1058384,21.6254893],[39.1058699,21.6254686],[39.1058944,21.6254534],[39.1059189,21.6254383],[39.1059433,21.6254231],[39.1059678,21.6254079],[39.1060003,21.6253949],[39.1060328,21.6253819],[39.1060585,21.625377],[39.1060843,21.6253722],[39.10611,21.6253673],[39.1061404,21.6253644],[39.1061708,21.6253614],[39.1061995,21.6253658],[39.1062281,21.6253701],[39.1062601,21.6253778],[39.106292,21.6253856],[39.1063203,21.6253999],[39.1063486,21.6254141],[39.1063732,21.6254342],[39.1063979,21.6254543],[39.1064225,21.6254745],[39.1064472,21.6254946],[39.1064636,21.6255175],[39.10648,21.6255404],[39.1064964,21.6255633],[39.1065083,21.6255871],[39.1065201,21.6256109],[39.106532,21.6256347],[39.1065364,21.6256591],[39.1065407,21.6256835],[39.1065451,21.6257079],[39.1065407,21.6257429],[39.1065363,21.6257779],[39.1065269,21.62581],[39.1065174,21.6258421],[39.106508,21.6258741],[39.1064985,21.6259062],[39.1064891,21.6259383],[39.1064797,21.6259704],[39.1064702,21.6260025],[39.1064608,21.6260345],[39.1064513,21.6260666],[39.1064419,21.6260987],[39.1064323,21.6261326],[39.1064227,21.6261664],[39.1064131,21.6262003],[39.1064035,21.6262342],[39.1063938,21.626268],[39.1063842,21.6263019],[39.1063746,21.6263358],[39.106365,21.6263696],[39.1063554,21.6264035],[39.1063476,21.6264363],[39.1063398,21.6264691],[39.106332,21.6265019],[39.1063243,21.6265346],[39.1063165,21.6265674],[39.1063087,21.6266002],[39.1063009,21.626633],[39.1062931,21.6266658],[39.1062862,21.6266979],[39.1062793,21.62673],[39.1062723,21.6267621],[39.1062654,21.6267942],[39.1062585,21.6268262],[39.1062516,21.6268583],[39.1062446,21.6268904],[39.1062377,21.6269225],[39.1062308,21.6269546],[39.1062244,21.6269893],[39.106218,21.6270241],[39.1062115,21.6270588],[39.1062051,21.6270936],[39.1061987,21.6271283],[39.1061923,21.627163],[39.1061859,21.6271978],[39.1061794,21.6272325],[39.106173,21.6272672],[39.1061666,21.627302],[39.1061602,21.6273367],[39.1061538,21.6273714],[39.1061474,21.6274062],[39.1061409,21.6274409],[39.1061345,21.6274757],[39.1061281,21.6275104],[39.1061005,21.6275172],[39.1060817,21.627516],[39.1060456,21.6275113],[39.1060115,21.6275039],[39.1059773,21.6274965],[39.1059432,21.6274891],[39.105909,21.6274817],[39.1058749,21.6274743],[39.1058495,21.6274715],[39.1058307,21.6274837],[39.1058457,21.6275163],[39.1058608,21.627549],[39.1058758,21.6275816],[39.1058908,21.6276143],[39.1059059,21.6276469],[39.1059209,21.6276795],[39.1059359,21.6277122],[39.1059509,21.6277448],[39.105966,21.6277774],[39.105981,21.6278101],[39.105996,21.6278427],[39.1060111,21.6278754],[39.1060261,21.627908],[39.1060302,21.6279418],[39.1060259,21.6279528],[39.1060184,21.6279862],[39.1060109,21.6280196],[39.1060034,21.6280529],[39.1059958,21.6280863],[39.1059883,21.6281197],[39.1059808,21.6281531],[39.1059733,21.6281865],[39.1059658,21.6282198],[39.1059583,21.6282532],[39.1059508,21.6282866],[39.1059433,21.62832],[39.1059357,21.6283534],[39.1059282,21.6283867],[39.1059207,21.6284201],[39.1059132,21.6284535],[39.1059047,21.6284878],[39.1058962,21.6285222],[39.1058877,21.6285565],[39.1058792,21.6285908],[39.1058708,21.6286252],[39.1058623,21.6286595],[39.1058538,21.6286938],[39.1058453,21.6287282],[39.1058368,21.6287625],[39.1058287,21.6287963],[39.1058206,21.6288302],[39.1058125,21.628864],[39.1058043,21.6288979],[39.1057962,21.6289317],[39.1057881,21.6289656],[39.10578,21.6289994],[39.1057713,21.629033],[39.1057626,21.6290666],[39.1057539,21.6291002],[39.1057452,21.6291338],[39.1057366,21.6291675],[39.1057279,21.6292011],[39.1057192,21.6292347],[39.1057105,21.6292683],[39.1057018,21.6293019],[39.1056919,21.6293329],[39.1056819,21.6293638],[39.105672,21.6293947],[39.105662,21.6294257],[39.1056521,21.6294567],[39.1056422,21.6294876],[39.1056322,21.6295186],[39.1056223,21.6295495],[39.1056112,21.6295808],[39.1056002,21.6296122],[39.1055891,21.6296435],[39.105578,21.6296749],[39.1055669,21.6297062],[39.1055559,21.6297376],[39.1055448,21.6297689],[39.1055337,21.6298003],[39.1055226,21.6298316],[39.1055116,21.629863],[39.1055005,21.6298943],[39.1054887,21.6299273],[39.1054769,21.6299604],[39.1054651,21.6299934],[39.1054534,21.6300264],[39.1054416,21.6300594],[39.1054298,21.6300925],[39.105418,21.6301255],[39.1054292,21.6301417],[39.1054404,21.6301579],[39.1054683,21.6301702],[39.1055032,21.6301776],[39.1055381,21.6301849],[39.1055729,21.6301923],[39.1056078,21.6301997],[39.1056427,21.630207],[39.1056776,21.6302144],[39.1057124,21.6302218],[39.1057473,21.6302291],[39.1057822,21.6302365],[39.1057842,21.6302709],[39.1057621,21.6302876],[39.1057262,21.6302958],[39.1056904,21.6303039],[39.1056545,21.6303121],[39.1056187,21.6303202],[39.1055829,21.6303284],[39.105547,21.6303366],[39.1055111,21.6303447],[39.1054753,21.6303529],[39.1054395,21.630361],[39.1054036,21.6303692],[39.1053803,21.6303771],[39.1053496,21.630394],[39.1053304,21.6304092],[39.1053112,21.6304245],[39.1052986,21.6304581],[39.105286,21.6304916],[39.1052734,21.6305252],[39.1052608,21.6305588],[39.1052482,21.6305923],[39.1052355,21.6306259],[39.1052229,21.6306595],[39.1052103,21.6306931],[39.1051977,21.6307266],[39.1051851,21.6307602],[39.1051725,21.6307938],[39.1051599,21.6308273],[39.1051473,21.6308609],[39.1051347,21.6308945],[39.1051221,21.630928],[39.1051095,21.6309616],[39.1050969,21.6309952],[39.1050842,21.6310288],[39.1050716,21.6310623],[39.105059,21.6310959],[39.1050464,21.6311295],[39.1050338,21.631163],[39.1050212,21.6311966],[39.1050086,21.6312302],[39.104996,21.6312637],[39.1049834,21.6312973],[39.1049708,21.6313309],[39.1049582,21.6313644],[39.1049455,21.631398],[39.1049329,21.6314316],[39.1049203,21.6314652],[39.1049077,21.6314987],[39.1048951,21.6315323],[39.1048825,21.6315659],[39.1048699,21.6315994],[39.1048573,21.631633],[39.1048447,21.6316666],[39.1048321,21.6317001],[39.1048195,21.6317337],[39.1048069,21.6317673],[39.1047942,21.6318009],[39.1047816,21.6318344],[39.104769,21.631868],[39.1047564,21.6319016],[39.1047438,21.6319351],[39.1047312,21.6319687],[39.1047191,21.6320019],[39.104707,21.632035],[39.1046949,21.6320682],[39.1046828,21.6321014],[39.1046707,21.6321345],[39.1046586,21.6321677],[39.1046465,21.6322009],[39.1046344,21.632234],[39.1046223,21.6322672],[39.1046102,21.6323004],[39.104598,21.6323335],[39.1045859,21.6323667],[39.1045738,21.6323999],[39.1045617,21.632433],[39.1045496,21.6324662],[39.1045375,21.6324994],[39.1045254,21.6325326],[39.1045133,21.6325657],[39.1045012,21.6325989],[39.1044891,21.6326321],[39.104477,21.6326652],[39.1044649,21.6326984]]}}]}