{"type":"FeatureCollection","features":[{"type":"Feature","properties":{"layout":"monaco-fe","source":"OpenStreetMap contributors (ODbL), routed by tools/route-layouts.mjs"},"geometry":{"type":"LineString","coordinates":[[7.4212104,43.7357351],[7.4212109,43.7357546],[7.4212113,43.7357741],[7.4212136,43.7357985],[7.4212159,43.7358229],[7.421219,43.7358552],[7.4212221,43.7358876],[7.4212251,43.7359199],[7.4212282,43.7359523],[7.4212313,43.7359846],[7.4212324,43.7359964],[7.4212395,43.7360318],[7.4212466,43.7360672],[7.4212514,43.7360939],[7.4212563,43.7361206],[7.4212611,43.7361473],[7.4212689,43.7361744],[7.4212768,43.7362015],[7.4212846,43.7362286],[7.4212947,43.7362603],[7.4213049,43.736292],[7.4213163,43.7363231],[7.4213277,43.7363543],[7.4213395,43.7363813],[7.4213513,43.7364082],[7.4213631,43.7364352],[7.4213749,43.7364622],[7.4213889,43.7364942],[7.4214028,43.7365263],[7.4214168,43.7365583],[7.4214442,43.7365875],[7.4214715,43.7366168],[7.4214989,43.736646],[7.4215262,43.7366752],[7.4215536,43.7367044],[7.4215809,43.7367337],[7.4216083,43.7367629],[7.4216348,43.736789],[7.4216613,43.7368152],[7.4216778,43.736822],[7.4216926,43.7368305],[7.4217336,43.7368393],[7.4217723,43.7368585],[7.4218114,43.7368875],[7.4218497,43.7369206],[7.4218831,43.7369512],[7.4219188,43.7369786],[7.4219714,43.7369952],[7.4220245,43.7370009],[7.4220693,43.7370055],[7.422114,43.7370101],[7.4221588,43.7370147],[7.4222036,43.7370193],[7.4222483,43.7370239],[7.4222931,43.7370285],[7.4223378,43.7370331],[7.4223826,43.7370377],[7.4224274,43.7370423],[7.4224727,43.7370469],[7.422518,43.7370516],[7.4225633,43.7370562],[7.4226086,43.7370609],[7.4226538,43.7370655],[7.4226991,43.7370702],[7.4227444,43.7370748],[7.4227897,43.7370795],[7.422835,43.7370841],[7.4228803,43.7370888],[7.4229256,43.7370934],[7.4229716,43.7370981],[7.4230195,43.7371028],[7.4230667,43.7371073],[7.4231139,43.7371119],[7.4231611,43.7371165],[7.4232084,43.7371211],[7.4232556,43.7371256],[7.4233028,43.7371302],[7.4233473,43.7371345],[7.4233908,43.7371398],[7.4234372,43.7371454],[7.4234835,43.737151],[7.4235299,43.7371566],[7.4235763,43.7371622],[7.4236226,43.7371678],[7.423669,43.7371734],[7.4237153,43.737179],[7.4237617,43.7371846],[7.4238099,43.7371904],[7.4238542,43.737195],[7.4238965,43.7371994],[7.4239388,43.7372039],[7.4239811,43.7372083],[7.4240246,43.7372128],[7.4240741,43.7372175],[7.4241225,43.7372221],[7.4241708,43.7372266],[7.4242192,43.7372312],[7.4242675,43.7372357],[7.4243159,43.7372403],[7.4243643,43.7372448],[7.4244126,43.7372494],[7.424461,43.7372539],[7.4245093,43.7372585],[7.4245577,43.7372631],[7.424606,43.7372676],[7.4246544,43.7372722],[7.4247027,43.7372767],[7.4247511,43.7372813],[7.4247995,43.7372858],[7.4248478,43.7372904],[7.4248965,43.737295],[7.4249455,43.7372995],[7.4249941,43.7373039],[7.4250428,43.7373083],[7.4250914,43.7373128],[7.4251401,43.7373172],[7.4251887,43.7373216],[7.4252373,43.7373261],[7.4253565,43.7373265],[7.4254573,43.7372784],[7.425492,43.7372564],[7.4255206,43.7372294],[7.4255846,43.7371308],[7.4255054,43.7370487],[7.4254468,43.7370377],[7.4253923,43.7370246],[7.4253463,43.7370054],[7.4252969,43.7370041],[7.4252506,43.7369992],[7.4252042,43.7369944],[7.4251763,43.7369963],[7.4251449,43.7370048],[7.4251069,43.7370222],[7.42507,43.7370366],[7.4250331,43.737051],[7.4249926,43.7370633],[7.4249624,43.7370624],[7.4249199,43.7370421],[7.424879,43.7370123],[7.424839,43.7369783],[7.4247985,43.7369464],[7.4247564,43.7369225],[7.4246881,43.7369093],[7.4246167,43.7369142],[7.4245677,43.7369183],[7.4245186,43.7369223],[7.4244696,43.7369264],[7.4244206,43.7369305],[7.4243716,43.7369345],[7.4243226,43.7369386],[7.4242735,43.7369427],[7.4242245,43.7369467],[7.4241755,43.7369508],[7.4241265,43.7369549],[7.4240774,43.7369589],[7.4240492,43.7369622],[7.4240309,43.7369591],[7.4239886,43.7369547],[7.4239463,43.7369502],[7.423904,43.7369458],[7.4238637,43.7369416],[7.4238192,43.7369362],[7.4237728,43.7369306],[7.4237265,43.736925],[7.4236801,43.7369194],[7.4236337,43.7369138],[7.4235874,43.7369082],[7.423541,43.7369026],[7.4234947,43.736897],[7.4234483,43.7368914],[7.4234177,43.7368883],[7.4233874,43.7368798],[7.4233421,43.7368678],[7.4232968,43.7368559],[7.4232514,43.736844],[7.4232071,43.7368479],[7.4231857,43.7368543],[7.4231473,43.7368314],[7.4231177,43.7368236],[7.4230841,43.7368199],[7.4230403,43.7368174],[7.4229813,43.7368389],[7.4229294,43.7368505],[7.4228799,43.7368488],[7.4228309,43.7368443],[7.4227819,43.7368398],[7.4227329,43.7368352],[7.4226839,43.7368307],[7.4226349,43.7368262],[7.4225859,43.7368217],[7.4225369,43.7368171],[7.4224879,43.7368126],[7.4224389,43.7368081],[7.4223899,43.7368036],[7.4223409,43.736799],[7.4222919,43.7367945],[7.4222483,43.7367843],[7.4222249,43.7367756],[7.4221967,43.7367596],[7.4221688,43.73674],[7.4221479,43.7367149],[7.4221271,43.7366898],[7.4221062,43.7366647],[7.4220844,43.7366354],[7.4220626,43.736606],[7.4220433,43.7365769],[7.422024,43.7365479],[7.4220046,43.7365188],[7.4219853,43.7364898],[7.421966,43.7364607],[7.4219506,43.7364331],[7.4219352,43.7364055],[7.4219238,43.7363849],[7.4219124,43.7363643],[7.4219005,43.7363361],[7.4218885,43.7363079],[7.4218766,43.7362797],[7.4218646,43.7362515],[7.4218527,43.7362233],[7.4218429,43.7361952],[7.421833,43.7361671],[7.4218232,43.736139],[7.4218135,43.7361061],[7.4218038,43.7360731],[7.4217984,43.7360484],[7.4217931,43.7360237],[7.4217877,43.735999],[7.4217832,43.7359698],[7.4217787,43.7359406],[7.4217741,43.7359114],[7.4217696,43.7358822],[7.4217695,43.735851],[7.4217693,43.7358198],[7.4217692,43.7357886],[7.421769,43.7357574],[7.4217689,43.7357262],[7.4217709,43.7356958],[7.4217729,43.7356654],[7.421775,43.7356349],[7.421777,43.7356045],[7.421779,43.7355741],[7.4217843,43.7355407],[7.4217896,43.7355074],[7.4217992,43.7354817],[7.4218089,43.7354559],[7.4218185,43.7354302],[7.4218308,43.7354074],[7.4218431,43.7353847],[7.4218554,43.7353619],[7.4218772,43.7353325],[7.421899,43.7353032],[7.421922,43.735278],[7.4219451,43.7352529],[7.4219681,43.7352277],[7.4219986,43.7352055],[7.4220291,43.7351833],[7.4220596,43.7351612],[7.4220901,43.735139],[7.4221245,43.7351136],[7.422159,43.7350883],[7.4221934,43.7350629],[7.4222122,43.735038],[7.4222309,43.735013],[7.4222399,43.7349779],[7.422249,43.7349428],[7.422258,43.7349078],[7.422267,43.7348727],[7.4222761,43.7348376],[7.4222851,43.7348025],[7.4222941,43.7347675],[7.4223032,43.7347324],[7.4223122,43.7346973],[7.4223198,43.7346671],[7.4223274,43.734637],[7.4223349,43.7346068],[7.4223425,43.7345767],[7.4223501,43.7345465],[7.4223587,43.734513],[7.4223672,43.7344794],[7.4223758,43.7344459],[7.4223844,43.7344123],[7.422393,43.7343788],[7.4224015,43.7343452],[7.4224101,43.7343117],[7.4224121,43.7342927],[7.4224126,43.7342747],[7.4224087,43.734255],[7.4224019,43.7342379],[7.4223891,43.7342121],[7.4223764,43.7341863],[7.4223636,43.7341605],[7.4223534,43.7341353],[7.4223433,43.73411],[7.4223375,43.7340913],[7.4223317,43.7340725],[7.4223284,43.7340544],[7.4223251,43.7340363],[7.4223224,43.7340085],[7.422325,43.7339783],[7.4222963,43.7339677],[7.4222676,43.7339571],[7.422246,43.7339472],[7.4222282,43.7339355],[7.4222091,43.733914],[7.4222024,43.7338809],[7.4222078,43.7338551],[7.4222131,43.7338293],[7.4222185,43.7338035],[7.4222297,43.7337754],[7.4222408,43.7337474],[7.422252,43.7337193],[7.4222632,43.7336912],[7.4222801,43.7336575],[7.422297,43.7336238],[7.4223139,43.7335901],[7.4223308,43.7335563],[7.4223477,43.7335226],[7.4223646,43.7334889],[7.4223833,43.7334597],[7.422402,43.7334304],[7.4224206,43.7334012],[7.4224393,43.7333719],[7.422458,43.7333427],[7.4224776,43.733315],[7.4224973,43.7332872],[7.422517,43.7332594],[7.4225366,43.7332317],[7.4225596,43.7332044],[7.4225826,43.7331772],[7.4226056,43.7331499],[7.4226282,43.7331274],[7.4226509,43.7331048],[7.4226735,43.7330823],[7.4227004,43.7330591],[7.4227274,43.733036],[7.4227543,43.7330128],[7.4227812,43.7329897],[7.4228054,43.7329727],[7.4228296,43.7329557],[7.4228538,43.7329387],[7.4228833,43.7329206],[7.4229128,43.7329024],[7.4229423,43.7328843],[7.4229736,43.7328681],[7.4230048,43.7328518],[7.4230394,43.7328372],[7.423074,43.7328225],[7.4231154,43.7328079],[7.4231568,43.7327933],[7.4232009,43.7327784],[7.4232451,43.7327636],[7.4232892,43.7327487],[7.4233333,43.7327339],[7.4233613,43.7327214],[7.4233892,43.7327089],[7.4234188,43.7326944],[7.4234484,43.73268],[7.4234622,43.7326613],[7.4234744,43.7326411],[7.4234851,43.7326198],[7.4234954,43.7325923],[7.4234985,43.7325683],[7.4234946,43.7325469],[7.4234821,43.7325241],[7.4234678,43.7325058],[7.4234511,43.7324935],[7.4234297,43.7324824],[7.4233969,43.7324688],[7.4233599,43.7324594],[7.4233159,43.7324504],[7.4232718,43.7324414],[7.4232278,43.7324324],[7.4231837,43.7324233],[7.4231397,43.7324143],[7.4230956,43.7324053],[7.4230516,43.7323963],[7.4230087,43.7323873],[7.4229757,43.7323832],[7.4229404,43.7323889],[7.4229162,43.7323976],[7.4228908,43.732409],[7.422866,43.7324203],[7.422832,43.7324366],[7.4228112,43.7324477],[7.4227905,43.7324588],[7.4227687,43.7324702],[7.422747,43.7324817],[7.4227158,43.7324995],[7.4226846,43.7325173],[7.4226535,43.732535],[7.4226223,43.7325528],[7.4225844,43.7325756],[7.4225465,43.7325984],[7.4225087,43.7326213],[7.4224708,43.7326441],[7.4224396,43.7326639],[7.4224085,43.7326836],[7.4223773,43.7327034],[7.4223461,43.7327231],[7.422315,43.7327426],[7.422284,43.7327621],[7.4222556,43.7327872],[7.4222273,43.7328123],[7.4221989,43.7328373],[7.4221705,43.7328624],[7.4221442,43.7328884],[7.422121,43.7329144],[7.4220977,43.7329405],[7.4220798,43.7329615],[7.4220619,43.7329826],[7.4220446,43.7330027],[7.4220273,43.7330228],[7.422003,43.7330504],[7.4219788,43.733078],[7.4219545,43.7331055],[7.4219303,43.7331331],[7.4219114,43.7331586],[7.4218925,43.733184],[7.4218736,43.7332095],[7.4218531,43.7332398],[7.4218325,43.7332701],[7.421812,43.7333004],[7.4218013,43.7333251],[7.4217907,43.7333499],[7.42178,43.7333746],[7.4217665,43.7334074],[7.421753,43.7334401],[7.4217434,43.733467],[7.4217337,43.7334939],[7.4217241,43.7335209],[7.4217145,43.7335478],[7.4217098,43.7335584],[7.421705,43.7335705],[7.421693,43.7336006],[7.4216791,43.7336332],[7.4216651,43.7336657],[7.4216512,43.7336982],[7.4216373,43.7337308],[7.4216265,43.7337578],[7.4216157,43.7337848],[7.4216049,43.7338118],[7.4215941,43.7338388],[7.4215815,43.7338697],[7.421569,43.7339007],[7.4215567,43.7339309],[7.4215468,43.7339567],[7.4215368,43.7339825],[7.4215295,43.7340015],[7.4215175,43.7340326],[7.4215055,43.7340636],[7.4214935,43.7340947],[7.4214815,43.7341258],[7.4214713,43.7341538],[7.4214611,43.7341818],[7.4214508,43.7342098],[7.4214406,43.7342378],[7.4214304,43.7342658],[7.4214203,43.7342996],[7.4214102,43.7343333],[7.4214022,43.7343601],[7.4213956,43.7343821],[7.4213902,43.734405],[7.4213847,43.734428],[7.4213798,43.7344485],[7.4213748,43.7344691],[7.4213722,43.7344802],[7.4213651,43.7345124],[7.421358,43.7345446],[7.4213518,43.7345726],[7.4213456,43.7346006],[7.4213394,43.7346286],[7.4213333,43.7346566],[7.4213284,43.7346786],[7.421323,43.7347031],[7.4213176,43.7347276],[7.4213118,43.7347541],[7.4213059,43.7347806],[7.4213011,43.7348093],[7.4212964,43.734838],[7.4212922,43.7348636],[7.4212879,43.7348893],[7.4212837,43.7349149],[7.421278,43.734949],[7.4212724,43.7349832],[7.4212688,43.735005],[7.4212652,43.7350269],[7.4212618,43.7350592],[7.4212585,43.7350915],[7.4212551,43.7351238],[7.4212517,43.7351561],[7.4212484,43.7351884],[7.421245,43.7352207],[7.4212426,43.7352415],[7.4212403,43.7352623],[7.4212371,43.7352912],[7.4212338,43.7353201],[7.4212306,43.735349],[7.4212268,43.7353755],[7.4212229,43.735402],[7.4212204,43.7354374],[7.4212179,43.7354729],[7.4212154,43.7355084],[7.4212128,43.735544],[7.4212103,43.7355796],[7.421209,43.7355976],[7.4212077,43.7356156],[7.4212084,43.7356455],[7.4212091,43.7356754],[7.4212098,43.7357052],[7.4212104,43.7357351]]}}]}