{"type":"FeatureCollection","features":[{"type":"Feature","properties":{"layout":"monza-combined","source":"OpenStreetMap contributors (ODbL), routed by tools/route-layouts.mjs"},"geometry":{"type":"LineString","coordinates":[[9.2808693,45.619005],[9.2808753,45.6190399],[9.2808814,45.6190748],[9.2808874,45.6191097],[9.2808935,45.6191446],[9.2808995,45.6191794],[9.2809056,45.6192143],[9.2809116,45.6192492],[9.2809177,45.6192841],[9.2809238,45.619319],[9.2809298,45.6193539],[9.2809359,45.6193888],[9.2809419,45.6194237],[9.280948,45.6194585],[9.280954,45.6194934],[9.2809601,45.6195283],[9.2809661,45.6195632],[9.2809716,45.6195945],[9.2809756,45.6196268],[9.2809801,45.6196626],[9.2809846,45.6196984],[9.2809891,45.6197342],[9.2809936,45.61977],[9.280998,45.6198058],[9.2810025,45.6198417],[9.281007,45.6198775],[9.2810115,45.6199133],[9.281016,45.6199491],[9.2810205,45.6199849],[9.281025,45.6200207],[9.2810295,45.6200565],[9.281034,45.6200924],[9.2810385,45.6201282],[9.281043,45.620164],[9.2810475,45.6201998],[9.281052,45.6202356],[9.2810565,45.6202714],[9.281061,45.6203072],[9.2810654,45.6203431],[9.2810699,45.6203789],[9.2810744,45.6204147],[9.2810789,45.6204505],[9.2810834,45.6204863],[9.2810879,45.6205221],[9.2810924,45.6205579],[9.2810969,45.6205938],[9.2811014,45.6206296],[9.2811057,45.6206639],[9.2811101,45.620698],[9.2811144,45.6207322],[9.2811187,45.6207664],[9.281123,45.6208005],[9.2811273,45.6208347],[9.2811317,45.6208688],[9.281136,45.620903],[9.2811403,45.6209371],[9.2811446,45.6209713],[9.2811489,45.6210055],[9.2811533,45.6210396],[9.2811576,45.6210738],[9.2811619,45.6211079],[9.2811653,45.6211353],[9.2811688,45.6211627],[9.2811722,45.6211902],[9.2811757,45.6212178],[9.2811808,45.6212535],[9.2811869,45.6212891],[9.281194,45.6213247],[9.2812023,45.6213602],[9.2812115,45.6213956],[9.2812217,45.6214309],[9.2812328,45.6214663],[9.2812449,45.6215015],[9.2812577,45.6215367],[9.2812714,45.6215719],[9.2812858,45.621607],[9.2813008,45.621642],[9.2813164,45.6216771],[9.2813325,45.6217121],[9.281349,45.6217471],[9.2813659,45.621782],[9.281383,45.621817],[9.2814003,45.6218519],[9.2814176,45.6218868],[9.2814349,45.6219217],[9.2814522,45.6219567],[9.2814692,45.6219916],[9.2814859,45.6220266],[9.2815023,45.6220616],[9.2815182,45.6220966],[9.2815336,45.6221316],[9.2815484,45.6221667],[9.2815625,45.6222018],[9.2815759,45.622237],[9.2815884,45.6222722],[9.2816001,45.6223075],[9.2816109,45.6223428],[9.2816208,45.6223782],[9.2816296,45.6224137],[9.2816374,45.6224492],[9.2816442,45.6224848],[9.2816499,45.6225204],[9.2816546,45.6225561],[9.2816592,45.6225918],[9.2816637,45.6226275],[9.2816682,45.6226633],[9.2816727,45.622699],[9.2816772,45.6227347],[9.2816817,45.6227704],[9.2816862,45.6228061],[9.2816908,45.6228419],[9.2816953,45.6228776],[9.2816998,45.6229133],[9.2817043,45.622949],[9.2817088,45.6229847],[9.2817133,45.6230205],[9.2817178,45.6230562],[9.2817224,45.6230919],[9.2817269,45.6231276],[9.2817314,45.6231633],[9.2817359,45.623199],[9.2817404,45.6232348],[9.2817449,45.6232705],[9.2817494,45.6233062],[9.281754,45.6233419],[9.2817585,45.6233776],[9.281763,45.6234134],[9.2817675,45.6234491],[9.281772,45.6234848],[9.2817765,45.6235205],[9.281781,45.6235562],[9.2817856,45.623592],[9.2817901,45.6236277],[9.2817946,45.6236634],[9.2817991,45.6236991],[9.2818036,45.6237348],[9.2818081,45.6237705],[9.2818126,45.6238063],[9.2818172,45.623842],[9.2818217,45.6238777],[9.2818262,45.6239134],[9.2818307,45.6239491],[9.2818352,45.6239849],[9.2818397,45.6240206],[9.2818442,45.6240563],[9.2818488,45.624092],[9.2818533,45.6241277],[9.2818578,45.6241635],[9.2818623,45.6241992],[9.2818668,45.6242349],[9.2818713,45.6242706],[9.2818758,45.6243063],[9.2818804,45.624342],[9.2818849,45.6243778],[9.2818894,45.6244135],[9.2818939,45.6244492],[9.281898,45.6244736],[9.2819013,45.624509],[9.2819046,45.6245443],[9.2819079,45.6245797],[9.2819112,45.6246151],[9.2819145,45.6246505],[9.2819178,45.6246858],[9.2819211,45.6247212],[9.2819244,45.6247566],[9.2819277,45.624792],[9.281931,45.6248273],[9.2819343,45.6248627],[9.2819376,45.6248981],[9.2819409,45.6249334],[9.2819442,45.6249688],[9.2819475,45.6250042],[9.2819508,45.6250396],[9.2819541,45.6250749],[9.2819575,45.6251103],[9.2819608,45.6251457],[9.2819641,45.625181],[9.2819674,45.6252164],[9.2819707,45.6252518],[9.281974,45.6252872],[9.2819773,45.6253225],[9.2819806,45.6253579],[9.2819839,45.6253933],[9.2819872,45.6254286],[9.2819905,45.625464],[9.2819938,45.6254994],[9.2819971,45.6255348],[9.2820004,45.6255701],[9.2820037,45.6256055],[9.282007,45.6256409],[9.2820103,45.6256763],[9.2820136,45.6257116],[9.2820169,45.625747],[9.2820213,45.6257811],[9.2820258,45.6258153],[9.2820302,45.6258494],[9.2820346,45.6258836],[9.2820391,45.6259177],[9.2820435,45.6259519],[9.2820479,45.625986],[9.2820523,45.6260202],[9.2820568,45.6260543],[9.2820612,45.6260885],[9.2820656,45.6261226],[9.2820701,45.6261568],[9.2820745,45.6261909],[9.2820784,45.6262258],[9.2820824,45.6262606],[9.2820863,45.6262955],[9.2820902,45.6263304],[9.2820942,45.6263652],[9.2820981,45.6264001],[9.282102,45.626435],[9.282106,45.6264698],[9.2821099,45.6265047],[9.2821138,45.6265396],[9.2821178,45.6265744],[9.2821217,45.6266093],[9.2821256,45.6266442],[9.2821296,45.626679],[9.2821335,45.6267139],[9.2821374,45.6267488],[9.2821413,45.6267837],[9.2821453,45.6268185],[9.2821492,45.6268534],[9.2821531,45.6268883],[9.2821571,45.6269231],[9.282161,45.626958],[9.2821649,45.6269929],[9.2821689,45.6270277],[9.2821728,45.6270626],[9.2821767,45.6270975],[9.2821807,45.6271323],[9.2821846,45.6271672],[9.2821885,45.6272021],[9.2821925,45.6272369],[9.2821964,45.6272718],[9.2822003,45.6273067],[9.2822043,45.6273415],[9.2822082,45.6273764],[9.2822131,45.6274064],[9.2822179,45.6274363],[9.2822228,45.6274663],[9.282231,45.6274975],[9.2822392,45.6275288],[9.2822474,45.62756],[9.2822556,45.6275913],[9.2822638,45.6276225],[9.282272,45.6276537],[9.2822802,45.627685],[9.2822884,45.6277162],[9.2823017,45.6277505],[9.2823149,45.6277848],[9.2823281,45.6278192],[9.2823414,45.6278535],[9.2823558,45.627883],[9.2823701,45.6279125],[9.2823845,45.627942],[9.2823988,45.6279715],[9.2824132,45.628001],[9.2824275,45.6280305],[9.2824453,45.6280595],[9.2824632,45.6280884],[9.2824811,45.6281174],[9.2824989,45.6281464],[9.2825167,45.6281753],[9.2825346,45.6282043],[9.2825525,45.6282332],[9.2825703,45.6282622],[9.2825931,45.6282921],[9.2826158,45.6283221],[9.2826386,45.628352],[9.2826614,45.628382],[9.2826842,45.6284119],[9.2827069,45.6284419],[9.2827297,45.6284718],[9.2827559,45.6284992],[9.2827821,45.6285266],[9.2828083,45.628554],[9.2828344,45.6285813],[9.2828606,45.6286087],[9.2828868,45.6286361],[9.282913,45.6286635],[9.2829446,45.6286909],[9.2829761,45.6287183],[9.2830077,45.6287458],[9.2830392,45.6287732],[9.2830708,45.6288006],[9.2831036,45.6288262],[9.2831365,45.6288519],[9.2831693,45.6288775],[9.2832022,45.6289032],[9.283235,45.6289288],[9.2832694,45.6289522],[9.2833038,45.6289756],[9.2833383,45.628999],[9.2833727,45.6290224],[9.2834071,45.6290458],[9.2834422,45.629067],[9.2834773,45.6290882],[9.2835123,45.6291093],[9.2835474,45.6291305],[9.2835825,45.6291517],[9.2836176,45.6291705],[9.2836526,45.6291892],[9.2836877,45.629208],[9.2837228,45.6292268],[9.2837578,45.6292455],[9.2837929,45.6292643],[9.2838319,45.6292832],[9.2838708,45.6293021],[9.2839098,45.6293211],[9.2839487,45.62934],[9.2839877,45.6293589],[9.2840265,45.6293759],[9.2840653,45.6293929],[9.2841041,45.6294098],[9.2841429,45.6294268],[9.2841817,45.6294438],[9.2842223,45.6294591],[9.2842628,45.6294744],[9.2843034,45.6294897],[9.284344,45.6295051],[9.2843846,45.6295204],[9.2844251,45.6295357],[9.2844657,45.629551],[9.284509,45.6295647],[9.2845524,45.6295783],[9.2845957,45.629592],[9.284639,45.6296056],[9.2846824,45.6296193],[9.2847257,45.6296329],[9.284769,45.6296466],[9.2848124,45.6296602],[9.2848557,45.6296739],[9.2849027,45.6296849],[9.2849497,45.629696],[9.2849967,45.629707],[9.2850438,45.6297181],[9.2850908,45.6297291],[9.2851378,45.6297402],[9.2851848,45.6297512],[9.2852273,45.6297595],[9.2852698,45.6297679],[9.2853123,45.6297762],[9.2853549,45.6297845],[9.2853974,45.6297928],[9.2854399,45.6298012],[9.2854824,45.6298095],[9.2855267,45.6298168],[9.2855711,45.6298242],[9.2856154,45.6298315],[9.2856597,45.6298389],[9.2857041,45.6298462],[9.2857484,45.6298536],[9.2857951,45.6298595],[9.2858418,45.6298653],[9.2858885,45.6298712],[9.2859351,45.629877],[9.2859818,45.6298829],[9.2860285,45.6298887],[9.2860752,45.6298946],[9.2861229,45.6298986],[9.2861705,45.6299026],[9.2862182,45.6299066],[9.2862659,45.6299106],[9.2863135,45.6299147],[9.2863612,45.6299187],[9.2864089,45.6299227],[9.2864566,45.6299267],[9.2865042,45.6299307],[9.2865519,45.6299347],[9.2866028,45.6299376],[9.2866536,45.6299404],[9.2867045,45.6299433],[9.2867554,45.6299461],[9.2868062,45.629949],[9.2868571,45.6299518],[9.286908,45.6299547],[9.2869588,45.6299575],[9.2870097,45.6299604],[9.2870605,45.6299633],[9.2871114,45.6299661],[9.2871623,45.629969],[9.2872131,45.6299718],[9.287264,45.6299747],[9.2873149,45.6299775],[9.2873657,45.6299804],[9.2874166,45.6299832],[9.2874675,45.6299861],[9.2875183,45.6299889],[9.2875692,45.6299918],[9.2876201,45.6299947],[9.2876709,45.6299975],[9.2877218,45.6300004],[9.2877727,45.6300032],[9.2878235,45.6300061],[9.2878744,45.6300089],[9.2879253,45.6300118],[9.2879761,45.6300146],[9.288027,45.6300175],[9.2880778,45.6300203],[9.2881287,45.6300232],[9.2881796,45.6300261],[9.2882304,45.6300289],[9.2882813,45.6300318],[9.2883322,45.6300346],[9.288383,45.6300375],[9.2884339,45.6300403],[9.2884848,45.6300432],[9.2885356,45.630046],[9.2885865,45.6300489],[9.2886361,45.6300514],[9.2886857,45.630054],[9.2887353,45.6300565],[9.2887849,45.6300591],[9.2888345,45.6300616],[9.2888841,45.6300641],[9.2889337,45.6300667],[9.2889833,45.6300692],[9.2890329,45.6300717],[9.2890825,45.6300743],[9.2891322,45.6300768],[9.2891818,45.6300794],[9.2892314,45.6300819],[9.289281,45.6300844],[9.2893306,45.630087],[9.2893802,45.6300895],[9.2894298,45.630092],[9.2894794,45.6300946],[9.289529,45.6300971],[9.2895786,45.6300997],[9.2896282,45.6301022],[9.2896749,45.6301038],[9.2897216,45.6301054],[9.2897683,45.630107],[9.289815,45.6301086],[9.2898617,45.6301102],[9.2899084,45.6301117],[9.2899551,45.6301133],[9.2900018,45.6301149],[9.2900485,45.6301165],[9.2900952,45.6301181],[9.2901433,45.6301292],[9.2901915,45.6301403],[9.2902396,45.6301514],[9.2902877,45.6301625],[9.2903358,45.6301736],[9.290384,45.6301847],[9.2904321,45.6301959],[9.2904802,45.630207],[9.2905283,45.6302181],[9.2905765,45.6302292],[9.2906246,45.6302403],[9.2906727,45.6302514],[9.2907208,45.6302625],[9.290769,45.6302736],[9.2908171,45.6302847],[9.2908652,45.6302958],[9.2909133,45.6303069],[9.2909615,45.630318],[9.2910096,45.6303291],[9.2910577,45.6303403],[9.2911059,45.6303514],[9.291154,45.6303625],[9.2912021,45.6303736],[9.2912502,45.6303847],[9.2912984,45.6303958],[9.2913465,45.6304069],[9.2913946,45.630418],[9.2914427,45.6304291],[9.2914909,45.6304402],[9.291539,45.6304513],[9.2915871,45.6304624],[9.2916352,45.6304735],[9.2916834,45.6304846],[9.2917315,45.6304958],[9.2917796,45.6305069],[9.2918278,45.630518],[9.2918759,45.6305291],[9.291924,45.6305402],[9.2919721,45.6305513],[9.2920203,45.6305624],[9.2920684,45.6305735],[9.2921165,45.6305846],[9.2921646,45.6305957],[9.2922128,45.6306068],[9.2922609,45.6306179],[9.292309,45.630629],[9.2923571,45.6306402],[9.2924053,45.6306513],[9.2924534,45.6306624],[9.2925015,45.6306735],[9.2925496,45.6306846],[9.2925978,45.6306957],[9.2926459,45.6307068],[9.2926941,45.630718],[9.2927423,45.6307292],[9.2927905,45.6307404],[9.2928386,45.6307516],[9.2928868,45.6307628],[9.292935,45.630774],[9.2929832,45.6307852],[9.2930314,45.6307963],[9.2930795,45.6308075],[9.2931277,45.6308187],[9.2931759,45.6308299],[9.2932241,45.6308411],[9.2932723,45.6308523],[9.2933205,45.6308635],[9.2933686,45.6308747],[9.2934168,45.6308859],[9.293465,45.6308971],[9.2935132,45.6309083],[9.2935614,45.6309195],[9.2936096,45.6309307],[9.2936577,45.6309419],[9.2937059,45.6309531],[9.2937541,45.6309642],[9.2938023,45.6309754],[9.2938505,45.6309866],[9.2938987,45.6309978],[9.2939468,45.631009],[9.293995,45.6310202],[9.2940432,45.6310314],[9.2940914,45.6310426],[9.2941396,45.6310536],[9.2941878,45.6310646],[9.2942361,45.6310756],[9.2942843,45.6310865],[9.2943325,45.6310975],[9.2943807,45.6311085],[9.2944289,45.6311195],[9.2944772,45.6311305],[9.2945254,45.6311415],[9.2945736,45.6311524],[9.2946218,45.6311634],[9.29467,45.6311744],[9.2947182,45.6311854],[9.2947665,45.6311964],[9.2948147,45.6312074],[9.2948629,45.6312184],[9.2949111,45.6312293],[9.2949593,45.6312403],[9.2950076,45.6312513],[9.2950558,45.6312623],[9.295104,45.6312733],[9.2951522,45.6312843],[9.2952004,45.6312952],[9.2952487,45.6313062],[9.2952969,45.6313172],[9.2953451,45.6313282],[9.2953778,45.6313343],[9.2954105,45.6313405],[9.2954426,45.6313457],[9.2954746,45.6313509],[9.2955103,45.6313547],[9.295546,45.6313584],[9.295573,45.6313598],[9.2956,45.6313611],[9.2956287,45.6313616],[9.2956574,45.6313621],[9.2956987,45.6313603],[9.2957393,45.6313576],[9.2957773,45.631354],[9.2958187,45.631349],[9.2958573,45.631343],[9.2958897,45.6313363],[9.2959307,45.6313269],[9.2959735,45.6313159],[9.2960016,45.6313079],[9.2960324,45.6312977],[9.2960631,45.6312875],[9.2960946,45.6312755],[9.2961261,45.6312634],[9.296149,45.6312531],[9.2961718,45.6312429],[9.2962081,45.6312248],[9.2962282,45.6312128],[9.2962484,45.6312008],[9.2962682,45.6311881],[9.296288,45.6311755],[9.2963113,45.6311583],[9.2963347,45.6311412],[9.2963553,45.6311245],[9.2963759,45.6311078],[9.2963916,45.6310926],[9.2964073,45.6310774],[9.2964334,45.6310487],[9.2964466,45.6310331],[9.2964598,45.6310175],[9.2964834,45.6309871],[9.2964962,45.6309676],[9.2965124,45.6309404],[9.296526,45.630916],[9.2965404,45.6308827],[9.2965522,45.6308523],[9.2965599,45.6308251],[9.2965676,45.6307979],[9.2965732,45.6307676],[9.2965789,45.6307373],[9.2965832,45.6307089],[9.2965875,45.6306805],[9.2965922,45.6306448],[9.2965969,45.6306092],[9.2966016,45.6305735],[9.2966063,45.6305378],[9.296611,45.6305021],[9.2966157,45.6304665],[9.2966204,45.6304308],[9.2966251,45.6303951],[9.2966298,45.6303594],[9.2966345,45.6303238],[9.2966392,45.6302881],[9.2966439,45.6302524],[9.2966486,45.6302167],[9.2966533,45.6301811],[9.296658,45.6301454],[9.2966627,45.6301097],[9.2966674,45.6300741],[9.2966721,45.6300384],[9.2966768,45.6300027],[9.2966815,45.629967],[9.2966862,45.6299314],[9.2966909,45.6298957],[9.2966956,45.62986],[9.2967003,45.6298243],[9.296705,45.6297887],[9.2967097,45.629753],[9.2967144,45.6297173],[9.2967191,45.6296816],[9.2967238,45.629646],[9.2967285,45.6296103],[9.2967331,45.6295754],[9.2967377,45.6295406],[9.2967423,45.6295057],[9.2967469,45.6294708],[9.2967515,45.6294359],[9.2967561,45.6294011],[9.2967607,45.6293662],[9.2967653,45.6293313],[9.2967699,45.6292965],[9.2967745,45.6292616],[9.2967791,45.6292267],[9.2967837,45.6291919],[9.2967883,45.629157],[9.2967928,45.6291221],[9.2967974,45.6290872],[9.296802,45.6290524],[9.2968066,45.6290175],[9.2968112,45.6289826],[9.2968158,45.6289478],[9.2968204,45.6289129],[9.296825,45.628878],[9.2968296,45.6288432],[9.2968342,45.6288083],[9.2968388,45.6287734],[9.2968434,45.6287385],[9.296848,45.6287037],[9.2968526,45.6286688],[9.2968538,45.6286437],[9.296855,45.6286185],[9.2968553,45.6285872],[9.2968524,45.628569],[9.2968496,45.6285509],[9.2968398,45.6285193],[9.2968266,45.6284888],[9.2968106,45.6284602],[9.2967862,45.6284308],[9.2967737,45.6284186],[9.2967473,45.6283964],[9.2967177,45.6283781],[9.2966854,45.6283598],[9.296646,45.6283404],[9.2966239,45.6283309],[9.2966018,45.6283215],[9.2965778,45.6283115],[9.2965539,45.6283016],[9.2965092,45.6282842],[9.2964644,45.6282667],[9.2964197,45.6282493],[9.296375,45.6282318],[9.2963302,45.6282144],[9.2962855,45.628197],[9.2962408,45.6281795],[9.296196,45.6281621],[9.2961513,45.6281446],[9.2961066,45.6281272],[9.2960618,45.6281098],[9.2960171,45.6280923],[9.2959724,45.6280749],[9.2959276,45.6280574],[9.2958829,45.62804],[9.2958381,45.6280225],[9.2957934,45.6280051],[9.2957487,45.6279877],[9.2957039,45.6279702],[9.2956592,45.6279528],[9.2956145,45.6279353],[9.2955697,45.6279179],[9.295525,45.6279005],[9.2954803,45.627883],[9.2954355,45.6278656],[9.2953908,45.6278481],[9.2953461,45.6278307],[9.2953013,45.6278133],[9.2952566,45.6277958],[9.2952119,45.6277784],[9.2951671,45.6277609],[9.2951224,45.6277435],[9.2950777,45.6277261],[9.2950329,45.6277086],[9.2949882,45.6276912],[9.2949435,45.6276737],[9.2948987,45.6276563],[9.294854,45.6276389],[9.2948093,45.6276214],[9.2947645,45.627604],[9.2947198,45.6275865],[9.294675,45.6275691],[9.2946303,45.6275516],[9.2945856,45.6275342],[9.2945408,45.6275168],[9.2944961,45.6274993],[9.2944514,45.6274819],[9.2944066,45.6274644],[9.2943619,45.627447],[9.2943172,45.6274296],[9.2942724,45.6274121],[9.2942277,45.6273947],[9.294183,45.6273772],[9.2941382,45.6273598],[9.2940935,45.6273424],[9.2940488,45.6273249],[9.294004,45.6273075],[9.2939593,45.62729],[9.2939146,45.6272726],[9.2938698,45.6272552],[9.2938251,45.6272377],[9.2937804,45.6272203],[9.2937356,45.6272028],[9.2936909,45.6271854],[9.2936462,45.627168],[9.2936014,45.6271505],[9.2935567,45.6271331],[9.2935119,45.6271156],[9.2934672,45.6270982],[9.2934225,45.6270807],[9.2933777,45.6270633],[9.293333,45.6270459],[9.2932883,45.6270284],[9.2932435,45.627011],[9.2931988,45.6269935],[9.2931541,45.6269761],[9.2931093,45.6269587],[9.2930646,45.6269412],[9.2930199,45.6269238],[9.2929751,45.6269063],[9.2929304,45.6268889],[9.2928898,45.6268722],[9.2928491,45.6268556],[9.2928085,45.6268389],[9.2927661,45.6268203],[9.2927236,45.6268018],[9.2926812,45.6267832],[9.2926415,45.626765],[9.2926018,45.6267468],[9.2925622,45.6267285],[9.2925225,45.6267103],[9.2924828,45.6266921],[9.2924412,45.6266723],[9.2923997,45.6266526],[9.2923602,45.6266333],[9.2923206,45.626614],[9.2922842,45.6265955],[9.2922478,45.6265769],[9.2922114,45.6265584],[9.2921763,45.6265401],[9.2921413,45.6265219],[9.2921062,45.6265036],[9.2920685,45.6264831],[9.2920308,45.6264625],[9.2919931,45.626442],[9.2919647,45.6264261],[9.2919362,45.6264101],[9.2919078,45.6263942],[9.2918757,45.6263758],[9.2918437,45.6263574],[9.2918136,45.6263395],[9.2917835,45.6263216],[9.2917467,45.6262989],[9.2917099,45.6262762],[9.2916731,45.6262535],[9.2916363,45.6262308],[9.2915995,45.6262081],[9.2915627,45.6261854],[9.2915259,45.6261627],[9.2914891,45.62614],[9.2914523,45.6261173],[9.2914155,45.6260946],[9.2913773,45.6260713],[9.2913392,45.6260479],[9.291301,45.6260246],[9.2912629,45.6260012],[9.2912247,45.6259779],[9.2911866,45.6259545],[9.2911484,45.6259312],[9.2911103,45.6259078],[9.2910721,45.6258845],[9.291034,45.6258612],[9.2909958,45.6258378],[9.2909577,45.6258145],[9.2909195,45.6257911],[9.2908813,45.6257678],[9.2908432,45.6257444],[9.290805,45.6257211],[9.2907669,45.6256977],[9.2907287,45.6256744],[9.2906906,45.6256511],[9.2906524,45.6256277],[9.2906143,45.6256044],[9.2905761,45.625581],[9.290538,45.6255577],[9.2904998,45.6255343],[9.2904617,45.625511],[9.2904235,45.6254876],[9.2903853,45.6254643],[9.2903472,45.625441],[9.290309,45.6254176],[9.2902709,45.6253943],[9.2902327,45.6253709],[9.2901946,45.6253476],[9.2901564,45.6253242],[9.2901183,45.6253009],[9.2900801,45.6252775],[9.290042,45.6252542],[9.2900038,45.6252309],[9.2899657,45.6252075],[9.2899275,45.6251842],[9.2898894,45.6251608],[9.2898512,45.6251375],[9.289813,45.6251141],[9.2897749,45.6250908],[9.2897367,45.6250674],[9.2896986,45.6250441],[9.2896604,45.6250208],[9.2896223,45.6249974],[9.2895841,45.6249741],[9.289546,45.6249507],[9.2895078,45.6249274],[9.2894697,45.624904],[9.2894315,45.6248807],[9.2893934,45.6248573],[9.2893552,45.624834],[9.2893211,45.6248131],[9.289287,45.6247923],[9.2892529,45.6247714],[9.2892189,45.6247506],[9.2891848,45.6247297],[9.2891507,45.6247089],[9.2891166,45.624688],[9.2890781,45.6246644],[9.2890395,45.6246408],[9.289001,45.6246173],[9.2889624,45.6245937],[9.2889239,45.6245701],[9.2888854,45.6245465],[9.2888468,45.6245229],[9.2888083,45.6244994],[9.2887698,45.6244758],[9.2887312,45.6244522],[9.2886927,45.6244286],[9.2886541,45.6244051],[9.2886156,45.6243815],[9.2885771,45.6243579],[9.2885385,45.6243343],[9.2885,45.6243107],[9.2884615,45.6242872],[9.2884229,45.6242636],[9.2883844,45.62424],[9.2883459,45.6242164],[9.2883073,45.6241928],[9.2882688,45.6241693],[9.2882302,45.6241457],[9.2881917,45.6241221],[9.2881532,45.6240985],[9.2881146,45.624075],[9.2880761,45.6240514],[9.2880376,45.6240278],[9.287999,45.6240042],[9.2879605,45.6239806],[9.2879219,45.6239571],[9.2878834,45.6239335],[9.2878449,45.6239099],[9.2878063,45.6238863],[9.2877678,45.6238627],[9.2877292,45.6238392],[9.2876907,45.6238156],[9.2876522,45.623792],[9.2876136,45.6237684],[9.2875751,45.6237448],[9.2875366,45.6237213],[9.287498,45.6236977],[9.2874595,45.6236741],[9.2874209,45.6236505],[9.2873824,45.623627],[9.2873439,45.6236034],[9.2873053,45.6235798],[9.2872668,45.6235562],[9.2872283,45.6235326],[9.2871897,45.6235091],[9.2871512,45.6234855],[9.2871126,45.6234619],[9.2870741,45.6234383],[9.2870356,45.6234147],[9.286997,45.6233912],[9.2869585,45.6233676],[9.28692,45.623344],[9.2868814,45.6233204],[9.2868429,45.6232969],[9.2868044,45.6232733],[9.2867658,45.6232497],[9.2867273,45.6232261],[9.2866887,45.6232025],[9.2866502,45.623179],[9.2866117,45.6231554],[9.2865731,45.6231318],[9.2865346,45.6231082],[9.2864961,45.6230846],[9.2864575,45.6230611],[9.286419,45.6230375],[9.2863804,45.6230139],[9.2863419,45.6229903],[9.2863034,45.6229668],[9.2862648,45.6229432],[9.2862263,45.6229196],[9.2861877,45.622896],[9.2861492,45.6228724],[9.2861107,45.6228489],[9.2860721,45.6228253],[9.2860336,45.6228017],[9.2860101,45.6227867],[9.28599,45.6227726],[9.2859698,45.6227584],[9.2859403,45.6227348],[9.2859149,45.6227122],[9.2858989,45.6226938],[9.2858869,45.6226763],[9.285875,45.6226525],[9.2858714,45.6226344],[9.2858678,45.6226164],[9.2858662,45.6225964],[9.2858646,45.6225764],[9.2858524,45.6225415],[9.2858402,45.6225065],[9.285828,45.6224716],[9.2858158,45.6224367],[9.2858036,45.6224018],[9.2857914,45.6223668],[9.2857792,45.6223319],[9.285767,45.622297],[9.2857549,45.6222621],[9.2857427,45.6222271],[9.2857305,45.6221922],[9.2857183,45.6221573],[9.2857061,45.6221224],[9.2856939,45.6220874],[9.2856817,45.6220525],[9.2856695,45.6220176],[9.2856573,45.6219827],[9.2856451,45.6219477],[9.2856329,45.6219128],[9.2856207,45.6218779],[9.2856085,45.621843],[9.2855963,45.621808],[9.2855841,45.6217731],[9.2855719,45.6217382],[9.2855598,45.6217033],[9.2855476,45.6216683],[9.2855354,45.6216334],[9.2855232,45.6215985],[9.285511,45.6215636],[9.2854988,45.6215286],[9.2854866,45.6214937],[9.2854744,45.6214588],[9.2854622,45.6214238],[9.28545,45.6213889],[9.2854378,45.621354],[9.2854256,45.6213191],[9.2854134,45.6212841],[9.2854012,45.6212492],[9.285389,45.6212143],[9.2853768,45.6211794],[9.2853647,45.6211444],[9.2853525,45.6211095],[9.2853403,45.6210746],[9.2853281,45.6210397],[9.2853159,45.6210047],[9.2853037,45.6209698],[9.2852915,45.6209349],[9.2852793,45.6209],[9.2852671,45.620865],[9.2852549,45.6208301],[9.2852427,45.6207952],[9.2852305,45.6207603],[9.2852183,45.6207253],[9.2852061,45.6206904],[9.2851939,45.6206555],[9.2851817,45.6206206],[9.2851696,45.6205856],[9.2851574,45.6205507],[9.2851452,45.6205158],[9.285133,45.6204809],[9.2851208,45.6204459],[9.2851086,45.620411],[9.2850964,45.6203761],[9.2850842,45.6203412],[9.285072,45.6203062],[9.2850598,45.6202713],[9.2850476,45.6202364],[9.2850354,45.6202014],[9.2850232,45.6201665],[9.285011,45.6201316],[9.2849988,45.6200967],[9.2849866,45.6200617],[9.2849745,45.6200268],[9.2849623,45.6199919],[9.2849501,45.619957],[9.2849379,45.619922],[9.2849257,45.6198871],[9.2849135,45.6198522],[9.2849013,45.6198173],[9.2848891,45.6197823],[9.2848769,45.6197474],[9.2848647,45.6197125],[9.2848525,45.6196776],[9.2848403,45.6196426],[9.2848281,45.6196077],[9.2848159,45.6195728],[9.2848037,45.6195379],[9.2847915,45.6195029],[9.2847794,45.619468],[9.2847672,45.6194331],[9.284755,45.6193982],[9.2847428,45.6193632],[9.2847306,45.6193283],[9.2847184,45.6192934],[9.2847062,45.6192585],[9.284694,45.6192235],[9.2846818,45.6191886],[9.2846765,45.6191532],[9.2846712,45.6191177],[9.2846659,45.6190823],[9.2846607,45.6190469],[9.2846554,45.6190115],[9.2846501,45.618976],[9.2846448,45.6189406],[9.2846395,45.6189052],[9.2846342,45.6188698],[9.284629,45.6188343],[9.2846237,45.6187989],[9.2846184,45.6187635],[9.2846131,45.6187281],[9.2846078,45.6186926],[9.2846025,45.6186572],[9.2845973,45.6186218],[9.284592,45.6185864],[9.2845867,45.6185509],[9.2845814,45.6185155],[9.2845761,45.6184801],[9.2845708,45.6184447],[9.2845656,45.6184092],[9.2845603,45.6183738],[9.284555,45.6183384],[9.2845497,45.618303],[9.2845444,45.6182675],[9.2845391,45.6182321],[9.2845339,45.6181967],[9.2845286,45.6181613],[9.2845233,45.6181258],[9.284518,45.6180904],[9.2845127,45.618055],[9.2845074,45.6180196],[9.2845022,45.6179841],[9.2844969,45.6179487],[9.2844916,45.6179133],[9.2844863,45.6178779],[9.284481,45.6178424],[9.2844757,45.617807],[9.2844705,45.6177716],[9.2844652,45.6177362],[9.2844599,45.6177007],[9.2844546,45.6176653],[9.2844493,45.6176299],[9.284444,45.6175945],[9.2844388,45.617559],[9.2844335,45.6175236],[9.2844282,45.6174882],[9.2844229,45.6174528],[9.2844176,45.6174173],[9.2844123,45.6173819],[9.2844071,45.6173465],[9.2844018,45.6173111],[9.2843965,45.6172756],[9.2843912,45.6172402],[9.2843859,45.6172048],[9.2843806,45.6171694],[9.2843754,45.6171339],[9.2843701,45.6170985],[9.2843648,45.6170631],[9.2843595,45.6170277],[9.2843542,45.6169922],[9.2843489,45.6169568],[9.2843437,45.6169214],[9.2843384,45.616886],[9.2843331,45.6168505],[9.2843278,45.6168151],[9.2843225,45.6167797],[9.2843172,45.6167443],[9.284312,45.6167088],[9.2843067,45.6166734],[9.2843014,45.616638],[9.2842961,45.6166026],[9.2842908,45.6165671],[9.2842855,45.6165317],[9.2842803,45.6164963],[9.284275,45.6164609],[9.2842697,45.6164254],[9.2842644,45.61639],[9.2842591,45.6163546],[9.2842538,45.6163192],[9.2842486,45.6162837],[9.2842433,45.6162483],[9.284238,45.6162129],[9.2842327,45.6161775],[9.2842274,45.616142],[9.2842221,45.6161066],[9.2842169,45.6160712],[9.2842116,45.6160358],[9.2842063,45.6160003],[9.284201,45.6159649],[9.2841957,45.6159292],[9.2841904,45.6158934],[9.2841852,45.6158577],[9.2841799,45.6158219],[9.2841746,45.6157862],[9.2841693,45.6157504],[9.2841641,45.6157147],[9.2841588,45.6156789],[9.2841535,45.6156432],[9.2841482,45.6156074],[9.2841429,45.6155717],[9.2841377,45.6155359],[9.2841324,45.6155002],[9.2841271,45.6154644],[9.2841218,45.6154287],[9.2841166,45.615393],[9.2841113,45.6153572],[9.284106,45.6153215],[9.2841007,45.6152857],[9.2840954,45.61525],[9.2840902,45.6152142],[9.2840849,45.6151785],[9.2840796,45.6151427],[9.2840743,45.615107],[9.284069,45.6150712],[9.2840638,45.6150355],[9.2840585,45.6149997],[9.2840532,45.614964],[9.2840479,45.6149282],[9.2840427,45.6148925],[9.2840374,45.6148567],[9.2840321,45.614821],[9.2840268,45.6147853],[9.2840215,45.6147495],[9.2840163,45.6147138],[9.284011,45.614678],[9.2840057,45.6146423],[9.2840004,45.6146065],[9.2839952,45.6145708],[9.2839899,45.614535],[9.2839846,45.6144993],[9.2839793,45.6144635],[9.283974,45.6144278],[9.2839688,45.614392],[9.2839635,45.6143563],[9.2839582,45.6143205],[9.2839529,45.6142848],[9.2839476,45.614249],[9.2839424,45.6142133],[9.2839371,45.6141776],[9.2839318,45.6141418],[9.2839265,45.6141061],[9.2839213,45.6140703],[9.283916,45.6140346],[9.2839107,45.6139988],[9.2839054,45.6139631],[9.2839001,45.6139273],[9.2838949,45.6138916],[9.2838896,45.6138558],[9.2838843,45.6138201],[9.283879,45.6137843],[9.2838738,45.6137486],[9.2838685,45.6137128],[9.2838632,45.6136771],[9.2838579,45.6136414],[9.2838526,45.6136056],[9.2838474,45.6135699],[9.2838421,45.6135341],[9.2838368,45.6134984],[9.2838315,45.6134626],[9.2838263,45.6134269],[9.283821,45.6133911],[9.2838157,45.6133554],[9.2838104,45.6133196],[9.2838051,45.6132839],[9.2837999,45.6132481],[9.2837946,45.6132124],[9.2837893,45.6131766],[9.283784,45.6131409],[9.2837787,45.6131052],[9.2837735,45.6130694],[9.2837682,45.6130337],[9.2837629,45.6129979],[9.2837576,45.6129622],[9.2837524,45.6129264],[9.2837471,45.6128907],[9.2837418,45.6128549],[9.2837365,45.6128192],[9.2837312,45.6127834],[9.283726,45.6127477],[9.2837207,45.6127119],[9.2837154,45.6126762],[9.2837101,45.6126404],[9.2837049,45.6126047],[9.2836996,45.6125689],[9.2836943,45.6125332],[9.2836905,45.612509],[9.2836867,45.6124849],[9.2836829,45.6124607],[9.2836789,45.6124403],[9.2836748,45.6124199],[9.2836685,45.6123999],[9.2836621,45.6123799],[9.2836493,45.6123493],[9.2836397,45.6123317],[9.2836301,45.612314],[9.2836121,45.6122853],[9.2835991,45.6122686],[9.2835861,45.6122518],[9.2835704,45.6122332],[9.2835547,45.6122145],[9.2835341,45.6121934],[9.2835135,45.6121723],[9.2834935,45.6121539],[9.2834735,45.6121356],[9.2834552,45.6121195],[9.283437,45.6121034],[9.2834129,45.6120852],[9.2833888,45.6120669],[9.2833683,45.6120545],[9.2833477,45.612042],[9.2833201,45.6120268],[9.2832924,45.6120117],[9.2832679,45.6119997],[9.2832435,45.6119878],[9.2832204,45.6119781],[9.2831973,45.6119685],[9.2831588,45.6119535],[9.2831229,45.6119404],[9.2830829,45.611927],[9.2830457,45.6119156],[9.283005,45.6119055],[9.2829644,45.6118954],[9.2829221,45.6118867],[9.2828799,45.6118781],[9.2828343,45.6118718],[9.282792,45.6118662],[9.2827616,45.6118638],[9.2827312,45.6118614],[9.2826842,45.6118581],[9.2826487,45.611858],[9.2826161,45.6118587],[9.2825723,45.6118609],[9.2825318,45.6118641],[9.2824941,45.6118672],[9.2824575,45.6118723],[9.2824236,45.6118775],[9.2823896,45.611884],[9.2823557,45.6118905],[9.282308,45.6119002],[9.2822828,45.6119061],[9.2822575,45.6119119],[9.2822104,45.6119235],[9.2821633,45.6119351],[9.2821193,45.6119477],[9.2820753,45.6119603],[9.2820458,45.6119695],[9.2820164,45.6119786],[9.2819856,45.6119902],[9.2819549,45.6120018],[9.2819247,45.6120138],[9.2818946,45.6120258],[9.2818684,45.612037],[9.2818422,45.6120483],[9.281818,45.6120595],[9.2817937,45.6120708],[9.2817644,45.6120854],[9.2817351,45.6121],[9.2816981,45.6121195],[9.2816737,45.6121334],[9.2816492,45.6121473],[9.2816268,45.6121608],[9.2816043,45.6121743],[9.2815722,45.6121946],[9.2815401,45.612215],[9.2815071,45.6122386],[9.2814742,45.6122623],[9.2814439,45.612285],[9.2814137,45.6123077],[9.2813912,45.6123265],[9.2813688,45.6123452],[9.2813463,45.612364],[9.2813153,45.6123926],[9.2812843,45.6124212],[9.28126,45.6124466],[9.2812356,45.6124719],[9.2812113,45.6124973],[9.2811845,45.6125263],[9.2811638,45.6125496],[9.281143,45.612573],[9.2811298,45.6125888],[9.2811166,45.6126045],[9.281102,45.6126226],[9.2810875,45.6126407],[9.2810751,45.6126584],[9.2810626,45.612676],[9.2810488,45.612696],[9.281035,45.6127161],[9.2810216,45.6127364],[9.2810083,45.6127568],[9.2809927,45.612784],[9.2809772,45.6128112],[9.2809642,45.6128339],[9.2809512,45.6128565],[9.2809401,45.6128782],[9.2809291,45.6128999],[9.2809181,45.6129226],[9.2809071,45.6129452],[9.280896,45.6129692],[9.280885,45.6129933],[9.2808756,45.6130163],[9.2808663,45.6130393],[9.280857,45.6130637],[9.2808476,45.6130881],[9.2808351,45.6131219],[9.2808226,45.6131558],[9.2808101,45.6131896],[9.2808007,45.6132234],[9.2807914,45.6132572],[9.2807834,45.6132906],[9.2807753,45.6133239],[9.2807697,45.6133515],[9.2807641,45.6133791],[9.2807585,45.6134067],[9.2807529,45.6134395],[9.2807472,45.6134723],[9.2807416,45.6135051],[9.2807376,45.6135374],[9.2807336,45.6135698],[9.2807296,45.6136022],[9.2807256,45.6136345],[9.2807237,45.6136675],[9.2807218,45.6137005],[9.2807198,45.6137335],[9.2807179,45.6137665],[9.280716,45.6137995],[9.2807163,45.6138325],[9.2807166,45.6138655],[9.280717,45.6138985],[9.2807176,45.6139315],[9.2807192,45.6139645],[9.2807205,45.6139995],[9.2807228,45.6140345],[9.2807261,45.6140696],[9.2807304,45.6141046],[9.2807355,45.6141397],[9.2807416,45.6141747],[9.2807484,45.6142098],[9.280756,45.6142449],[9.2807644,45.61428],[9.2807734,45.6143151],[9.2807829,45.6143502],[9.280793,45.6143853],[9.2808036,45.6144204],[9.2808145,45.6144556],[9.2808257,45.6144907],[9.2808371,45.6145258],[9.2808486,45.614561],[9.2808602,45.6145961],[9.2808717,45.6146313],[9.2808832,45.6146664],[9.2808944,45.6147015],[9.2809053,45.6147367],[9.2809159,45.6147718],[9.280926,45.6148069],[9.2809356,45.6148408],[9.2809452,45.6148739],[9.2809542,45.6149083],[9.2809625,45.6149428],[9.2809701,45.6149772],[9.2809768,45.6150116],[9.2809828,45.615046],[9.2809878,45.6150804],[9.2809919,45.6151149],[9.2809951,45.6151493],[9.2809974,45.6151837],[9.2809986,45.6152181],[9.2809989,45.6152495],[9.281,45.6152816],[9.2810011,45.6153167],[9.2810022,45.6153518],[9.2810034,45.6153868],[9.2810045,45.6154219],[9.2810057,45.615457],[9.2810068,45.615492],[9.281008,45.6155271],[9.2810091,45.6155621],[9.2810103,45.6155972],[9.2810111,45.6156266],[9.2810143,45.6156551],[9.2810181,45.6156893],[9.2810218,45.6157235],[9.2810255,45.6157578],[9.2810292,45.615792],[9.281033,45.6158262],[9.2810367,45.6158605],[9.2810402,45.6158931],[9.2810446,45.6159268],[9.2810492,45.615962],[9.2810538,45.6159972],[9.2810584,45.6160325],[9.281063,45.6160677],[9.2810675,45.616103],[9.2810721,45.6161382],[9.2810766,45.6161723],[9.2810816,45.6162066],[9.2810867,45.6162422],[9.2810919,45.6162777],[9.2810971,45.6163132],[9.2811023,45.6163487],[9.2811074,45.6163842],[9.2811126,45.6164197],[9.2811178,45.6164552],[9.281123,45.6164908],[9.2811281,45.6165263],[9.2811333,45.6165618],[9.2811385,45.6165973],[9.2811437,45.6166328],[9.2811488,45.6166683],[9.281154,45.6167039],[9.2811592,45.6167394],[9.2811643,45.6167749],[9.2811695,45.6168104],[9.2811747,45.6168459],[9.2811799,45.6168814],[9.281185,45.6169169],[9.2811902,45.6169525],[9.2811954,45.616988],[9.2812006,45.6170235],[9.2812057,45.617059],[9.2812109,45.6170945],[9.2812161,45.61713],[9.2812212,45.6171656],[9.2812264,45.6172011],[9.2812316,45.6172366],[9.2812368,45.6172721],[9.2812419,45.6173076],[9.2812471,45.6173431],[9.2812523,45.6173786],[9.2812575,45.6174142],[9.2812626,45.6174497],[9.2812678,45.6174852],[9.281273,45.6175207],[9.2812782,45.6175562],[9.2812833,45.6175917],[9.2812885,45.6176273],[9.2812937,45.6176628],[9.2812988,45.6176983],[9.281304,45.6177338],[9.2813092,45.6177693],[9.2813144,45.6178048],[9.2813195,45.6178403],[9.2813247,45.6178759],[9.2813299,45.6179114],[9.2813351,45.6179469],[9.2813402,45.6179824],[9.2813454,45.6180179],[9.2813506,45.6180534],[9.2813557,45.618089],[9.2813609,45.6181245],[9.2813661,45.61816],[9.2813713,45.6181955],[9.2813764,45.618231],[9.2813816,45.6182665],[9.2813868,45.618302],[9.281392,45.6183376],[9.2813971,45.6183731],[9.2814023,45.6184086],[9.2814075,45.6184441],[9.2814127,45.6184796],[9.2814178,45.6185151],[9.281423,45.6185507],[9.2814282,45.6185862],[9.2814333,45.6186217],[9.2814385,45.6186572],[9.2814437,45.6186927],[9.2814489,45.6187282],[9.281454,45.6187637],[9.2814592,45.6187993],[9.2814644,45.6188348],[9.2814696,45.6188703],[9.2814747,45.6189058],[9.2814796,45.6189393],[9.2814851,45.618971],[9.281491,45.6190049],[9.2814968,45.6190387],[9.2815027,45.6190725],[9.2815086,45.6191063],[9.2815144,45.6191402],[9.2815203,45.619174],[9.2815262,45.6192078],[9.281532,45.6192417],[9.2815379,45.6192755],[9.2815438,45.6193093],[9.2815496,45.6193431],[9.2815555,45.619377],[9.2815614,45.6194108],[9.2815672,45.6194446],[9.2815731,45.6194785],[9.281579,45.6195123],[9.2815854,45.6195498],[9.2815904,45.619589],[9.2815949,45.6196249],[9.2815994,45.6196607],[9.2816039,45.6196965],[9.2816084,45.6197323],[9.2816129,45.6197681],[9.2816174,45.6198039],[9.2816219,45.6198397],[9.2816263,45.6198756],[9.2816308,45.6199114],[9.2816353,45.6199472],[9.2816398,45.619983],[9.2816443,45.6200188],[9.2816488,45.6200546],[9.2816533,45.6200904],[9.2816578,45.6201263],[9.2816623,45.6201621],[9.2816668,45.6201979],[9.2816713,45.6202337],[9.2816758,45.6202695],[9.2816803,45.6203053],[9.2816848,45.6203411],[9.2816893,45.620377],[9.2816937,45.6204128],[9.2816982,45.6204486],[9.2817027,45.6204844],[9.2817072,45.6205202],[9.2817117,45.620556],[9.2817162,45.6205918],[9.2817205,45.6206258],[9.2817248,45.62066],[9.2817292,45.6206941],[9.2817335,45.6207283],[9.2817378,45.6207625],[9.2817421,45.6207966],[9.2817464,45.6208308],[9.2817508,45.6208649],[9.2817551,45.6208991],[9.2817594,45.6209332],[9.2817637,45.6209674],[9.281768,45.6210016],[9.2817724,45.6210357],[9.2817767,45.6210699],[9.2817802,45.6210975],[9.2817836,45.621125],[9.2817871,45.6211524],[9.2817869,45.6211608],[9.2817936,45.6211784],[9.2818042,45.6212115],[9.2818139,45.6212448],[9.2818226,45.6212783],[9.2818305,45.6213119],[9.2818375,45.6213456],[9.2818437,45.6213795],[9.2818491,45.6214135],[9.2818537,45.6214477],[9.2818577,45.621482],[9.2818609,45.6215164],[9.2818636,45.621551],[9.2818657,45.6215856],[9.2818674,45.6216203],[9.2818684,45.621648],[9.2818692,45.6216759],[9.2818697,45.6217037],[9.2818706,45.6217328],[9.2818706,45.6217616],[9.2818704,45.6217904],[9.2818693,45.6218198],[9.2818682,45.6218491],[9.281866,45.6218792],[9.2818641,45.6219098],[9.281861,45.6219375],[9.2818577,45.6219641],[9.2818536,45.6219914],[9.2818497,45.6220185],[9.2818461,45.6220407],[9.2818426,45.6220629],[9.2818362,45.6220987],[9.2818302,45.622134],[9.2818249,45.6221693],[9.2818203,45.6222045],[9.2818164,45.6222397],[9.2818133,45.6222747],[9.2818119,45.622309],[9.2818114,45.6223434],[9.2818118,45.6223778],[9.2818128,45.6224089],[9.2818145,45.62244],[9.281817,45.622471],[9.2818203,45.622502],[9.2818254,45.622536],[9.2818307,45.62257],[9.2818361,45.6226041],[9.2818414,45.6226381],[9.2818467,45.6226721],[9.281851,45.6226962],[9.2818553,45.6227202],[9.2818596,45.6227443],[9.2818669,45.6227789],[9.2818741,45.6228134],[9.2818814,45.622848],[9.281889,45.6228799],[9.2818965,45.6229119],[9.2819041,45.6229438],[9.2819119,45.6229723],[9.2819197,45.6230008],[9.2819302,45.6230358],[9.2819407,45.6230709],[9.2819512,45.6231059],[9.2819589,45.6231295],[9.2819666,45.6231532],[9.2819743,45.6231768],[9.2819825,45.6232007],[9.2819906,45.6232247],[9.2819988,45.6232486],[9.2820087,45.6232768],[9.2820186,45.6233051],[9.2820285,45.6233333],[9.2820389,45.6233619],[9.2820492,45.6233904],[9.2820596,45.623419],[9.2820727,45.6234531],[9.2820858,45.6234872],[9.2820989,45.6235214],[9.282112,45.6235555],[9.2821227,45.6235813],[9.2821335,45.6236071],[9.2821442,45.6236329],[9.2821529,45.6236527],[9.2821617,45.6236725],[9.2821711,45.6236928],[9.2821805,45.6237131],[9.282189,45.6237308],[9.2821975,45.6237484],[9.2822067,45.6237665],[9.2822159,45.6237847],[9.2822291,45.6238095],[9.2822422,45.6238343],[9.2822554,45.6238591],[9.2822723,45.6238891],[9.2822891,45.6239191],[9.282306,45.623949],[9.2823228,45.623979],[9.2823397,45.624009],[9.2823571,45.6240378],[9.2823745,45.6240667],[9.2823919,45.6240955],[9.282406,45.6241174],[9.2824201,45.6241392],[9.2824355,45.624161],[9.2824509,45.6241829],[9.2824682,45.624206],[9.2824855,45.6242292],[9.2825041,45.6242523],[9.2825227,45.6242754],[9.2825391,45.6242949],[9.2825555,45.6243145],[9.2825815,45.6243435],[9.2826076,45.6243725],[9.2826256,45.6243925],[9.2826435,45.6244125],[9.2826671,45.6244376],[9.2826907,45.6244626],[9.2827163,45.6244881],[9.2827419,45.6245136],[9.2827705,45.6245424],[9.2827991,45.6245712],[9.2828195,45.6245907],[9.2828399,45.6246102],[9.2828603,45.6246297],[9.2828847,45.6246522],[9.2829092,45.6246748],[9.2829336,45.6246973],[9.282958,45.6247199],[9.2829742,45.6247342],[9.2829903,45.6247484],[9.2830132,45.6247677],[9.2830361,45.624787],[9.283059,45.6248063],[9.2830837,45.6248256],[9.2831084,45.6248449],[9.2831331,45.6248642],[9.2831585,45.6248834],[9.2831839,45.6249027],[9.2832124,45.6249222],[9.2832408,45.6249418],[9.2832693,45.6249613],[9.2832997,45.6249811],[9.28333,45.625001],[9.2833639,45.6250219],[9.2833978,45.6250428],[9.2834321,45.625063],[9.2834664,45.6250831],[9.2834956,45.6250996],[9.2835249,45.625116],[9.2835569,45.6251333],[9.2835888,45.6251507],[9.2836145,45.6251643],[9.2836402,45.6251778],[9.2836686,45.6251923],[9.283697,45.6252068],[9.2837263,45.6252211],[9.2837556,45.6252354],[9.2837849,45.6252497],[9.2838142,45.6252634],[9.2838436,45.6252772],[9.2838729,45.6252909],[9.2839148,45.6253095],[9.2839566,45.6253282],[9.2839985,45.6253468],[9.2840338,45.6253619],[9.2840692,45.6253771],[9.2841015,45.6253902],[9.2841339,45.6254032],[9.2841676,45.6254162],[9.2842012,45.6254292],[9.2842318,45.6254407],[9.2842623,45.6254522],[9.2842943,45.6254637],[9.2843262,45.6254751],[9.28436,45.6254866],[9.2843937,45.625498],[9.2844332,45.6255109],[9.2844727,45.6255238],[9.2845125,45.625536],[9.2845522,45.6255482],[9.284592,45.6255603],[9.2846318,45.6255725],[9.2846676,45.625583],[9.2847034,45.6255935],[9.2847392,45.6256041],[9.284775,45.6256146],[9.2848219,45.6256267],[9.2848687,45.6256387],[9.2849018,45.6256467],[9.2849348,45.6256548],[9.2849679,45.6256628],[9.2850111,45.6256721],[9.2850543,45.6256815],[9.2850805,45.6256867],[9.2851068,45.6256919],[9.2851451,45.6256991],[9.2851835,45.6257063],[9.2852124,45.625711],[9.2852412,45.6257157],[9.2852874,45.6257227],[9.2853336,45.6257297],[9.285376,45.6257356],[9.2854185,45.6257416],[9.2854547,45.6257458],[9.285491,45.62575],[9.2855253,45.6257534],[9.2855596,45.6257569],[9.2855932,45.6257598],[9.2856268,45.6257628],[9.285667,45.6257653],[9.2857072,45.6257678],[9.2857467,45.6257698],[9.2857863,45.6257719],[9.2858156,45.6257729],[9.285845,45.6257739],[9.2858854,45.6257745],[9.2859258,45.625775],[9.2859662,45.6257756],[9.2859978,45.6257759],[9.2860294,45.6257761],[9.286063,45.6257758],[9.2860967,45.6257755],[9.2861339,45.6257747],[9.2861712,45.6257739],[9.2862135,45.6257725],[9.2862557,45.625771],[9.286298,45.6257696],[9.2863312,45.6257681],[9.2863643,45.6257666],[9.286405,45.6257638],[9.2864456,45.6257611],[9.2864732,45.6257587],[9.2865008,45.6257563],[9.2865315,45.6257537],[9.2865621,45.6257511],[9.2866036,45.6257468],[9.286645,45.6257425],[9.2866865,45.6257382],[9.286715,45.6257347],[9.2867435,45.6257313],[9.2867835,45.6257256],[9.2868235,45.6257199],[9.2868635,45.6257142],[9.2869013,45.6257085],[9.2869391,45.6257027],[9.2869769,45.625697],[9.2870161,45.6256908],[9.2870554,45.6256846],[9.287096,45.6256775],[9.2871367,45.6256705],[9.2871773,45.6256634],[9.2872173,45.6256559],[9.2872573,45.6256484],[9.2872973,45.6256409],[9.287335,45.6256338],[9.2873727,45.6256268],[9.2874182,45.6256177],[9.2874638,45.6256085],[9.2875022,45.6256001],[9.2875406,45.6255916],[9.287577,45.6255832],[9.2876133,45.6255748],[9.2876487,45.6255662],[9.2876841,45.6255576],[9.2877175,45.6255489],[9.2877509,45.6255403],[9.28778,45.6255321],[9.2878091,45.6255239],[9.2878487,45.6255118],[9.2878882,45.6254998],[9.2879211,45.6254888],[9.2879541,45.6254779],[9.287987,45.6254669],[9.2880201,45.6254554],[9.2880533,45.6254438],[9.2880937,45.6254292],[9.2881341,45.6254145],[9.2881737,45.6253999],[9.2882133,45.6253853],[9.2882512,45.6253708],[9.288289,45.6253562],[9.2883295,45.62534],[9.2883699,45.6253239],[9.2884104,45.6253077],[9.2884447,45.625293],[9.2884789,45.6252783],[9.2885171,45.6252604],[9.2885554,45.6252426],[9.2885965,45.625222],[9.2886264,45.6252062],[9.2886562,45.6251904],[9.2886962,45.6251681],[9.288718,45.6251552],[9.2887399,45.6251422],[9.2887756,45.6251197],[9.2888113,45.6250972],[9.2888375,45.6250802],[9.2888636,45.6250633],[9.2888898,45.6250463],[9.2889133,45.6250303],[9.2889369,45.6250142],[9.2889638,45.6249947],[9.2889907,45.6249751],[9.2890188,45.624954],[9.2890469,45.6249329],[9.289075,45.6249118],[9.2891031,45.6248907],[9.2891312,45.6248696],[9.2891607,45.6248452],[9.2891902,45.6248208],[9.2892197,45.6247964],[9.2892492,45.6247721],[9.2892787,45.6247477],[9.2893082,45.6247233],[9.2893368,45.6246977],[9.2893654,45.624672],[9.2893941,45.6246464],[9.2894227,45.6246208],[9.2894513,45.6245951],[9.2894799,45.6245695],[9.289506,45.6245389],[9.289532,45.6245084],[9.2895581,45.6244778],[9.2895841,45.6244473],[9.2896102,45.6244167],[9.2896362,45.6243862],[9.2896623,45.6243556],[9.2896796,45.6243271],[9.2896969,45.6242985],[9.2897142,45.62427],[9.2897315,45.6242415],[9.2897488,45.624213],[9.2897661,45.6241844],[9.2897834,45.6241559],[9.2898033,45.6241231],[9.2898231,45.6240904],[9.289843,45.6240576],[9.2898628,45.6240249],[9.2898827,45.6239921],[9.2899026,45.6239594],[9.2899224,45.6239267],[9.2899423,45.6238939],[9.2899621,45.6238612],[9.289982,45.6238284],[9.2900018,45.6237957],[9.2900217,45.6237629],[9.2900296,45.6237283],[9.2900376,45.6236937],[9.2900455,45.6236592],[9.2900534,45.6236246],[9.2900614,45.62359],[9.2900693,45.6235554],[9.2900772,45.6235208],[9.2900851,45.6234862],[9.2900931,45.6234517],[9.290101,45.6234171],[9.2901089,45.6233825],[9.2901169,45.6233479],[9.2901248,45.6233133],[9.2901327,45.6232787],[9.2901407,45.6232442],[9.2901486,45.6232096],[9.2901565,45.623175],[9.2901644,45.6231404],[9.2901724,45.6231058],[9.2901803,45.6230712],[9.2901882,45.6230367],[9.2901962,45.6230021],[9.2902041,45.6229675],[9.2902038,45.6229322],[9.2902036,45.622897],[9.2902033,45.6228617],[9.290203,45.6228264],[9.2902028,45.6227912],[9.2902025,45.6227559],[9.2902022,45.6227206],[9.2902019,45.6226854],[9.2902017,45.6226501],[9.2902014,45.6226148],[9.2902011,45.6225796],[9.2902009,45.6225443],[9.2902006,45.6225091],[9.2902003,45.6224738],[9.2902,45.6224385],[9.2901998,45.6224033],[9.2901995,45.622368],[9.2901992,45.6223327],[9.290199,45.6222975],[9.2901987,45.6222622],[9.2901948,45.6222274],[9.2901909,45.6221926],[9.290187,45.6221578],[9.2901831,45.622123],[9.2901792,45.6220882],[9.2901753,45.6220535],[9.2901714,45.6220187],[9.2901675,45.6219839],[9.2901636,45.6219491],[9.2901597,45.6219143],[9.2901558,45.6218795],[9.2901519,45.6218447],[9.290148,45.6218099],[9.2901441,45.6217751],[9.2901402,45.6217403],[9.2901363,45.6217055],[9.2901324,45.6216708],[9.2901285,45.621636],[9.2901246,45.6216012],[9.2901207,45.6215664],[9.2901168,45.6215316],[9.2901129,45.6214968],[9.290107,45.6214628],[9.2901011,45.6214288],[9.2900953,45.6213948],[9.2900894,45.6213608],[9.2900835,45.6213267],[9.2900776,45.6212927],[9.2900717,45.6212587],[9.2900659,45.6212247],[9.29006,45.6211907],[9.2900541,45.6211567],[9.2900482,45.6211227],[9.2900423,45.6210887],[9.2900364,45.6210546],[9.2900306,45.6210206],[9.2900247,45.6209866],[9.2900188,45.6209526],[9.2900127,45.620917],[9.2900065,45.6208815],[9.2900004,45.6208459],[9.2899942,45.6208104],[9.2899881,45.6207748],[9.2899819,45.6207393],[9.2899758,45.6207037],[9.2899696,45.6206682],[9.2899635,45.6206326],[9.2899573,45.6205971],[9.2899512,45.6205615],[9.289945,45.620526],[9.2899389,45.6204904],[9.2899327,45.6204549],[9.2899266,45.6204193],[9.2899205,45.6203838],[9.2899143,45.6203482],[9.2899082,45.6203127],[9.289902,45.6202771],[9.2898959,45.6202416],[9.2898897,45.620206],[9.2898836,45.6201705],[9.2898774,45.6201349],[9.2898713,45.6200994],[9.2898651,45.6200638],[9.289859,45.6200283],[9.2898528,45.6199927],[9.2898467,45.6199572],[9.2898405,45.6199216],[9.2898344,45.6198861],[9.2898283,45.6198505],[9.2898221,45.619815],[9.289816,45.6197794],[9.2898098,45.6197439],[9.2898037,45.6197083],[9.2897975,45.6196728],[9.2897914,45.6196372],[9.2897852,45.6196016],[9.2897791,45.6195661],[9.2897729,45.6195305],[9.2897668,45.619495],[9.2897606,45.6194594],[9.2897545,45.6194239],[9.2897484,45.6193883],[9.2897422,45.6193528],[9.2897361,45.6193172],[9.2897299,45.6192817],[9.2897238,45.6192461],[9.2897176,45.6192106],[9.2897115,45.619175],[9.2897053,45.6191395],[9.2896992,45.6191039],[9.289693,45.6190684],[9.2896869,45.6190328],[9.2896807,45.6189973],[9.2896746,45.6189617],[9.2896684,45.6189262],[9.2896623,45.6188906],[9.2896562,45.6188551],[9.28965,45.6188195],[9.2896439,45.618784],[9.2896377,45.6187484],[9.2896316,45.6187129],[9.2896254,45.6186773],[9.2896193,45.6186418],[9.2896131,45.6186062],[9.289607,45.6185707],[9.2896008,45.6185351],[9.2895947,45.6184996],[9.2895885,45.618464],[9.2895824,45.6184285],[9.2895762,45.6183929],[9.2895701,45.6183573],[9.289564,45.6183218],[9.2895578,45.6182862],[9.2895517,45.6182507],[9.2895455,45.6182151],[9.2895394,45.6181796],[9.2895332,45.618144],[9.2895271,45.6181085],[9.2895209,45.6180729],[9.2895148,45.6180374],[9.2895086,45.6180018],[9.2895025,45.6179663],[9.2894963,45.6179307],[9.2894902,45.6178952],[9.289484,45.6178596],[9.2894779,45.6178241],[9.2894718,45.6177885],[9.2894656,45.617753],[9.2894595,45.6177174],[9.2894533,45.6176819],[9.2894472,45.6176463],[9.289441,45.6176108],[9.2894349,45.6175752],[9.2894287,45.6175397],[9.2894226,45.6175041],[9.2894164,45.6174686],[9.2894103,45.617433],[9.2894041,45.6173975],[9.289398,45.6173619],[9.2893918,45.6173264],[9.2893857,45.6172908],[9.2893796,45.6172553],[9.2893734,45.6172197],[9.2893673,45.6171842],[9.2893611,45.6171486],[9.289355,45.6171131],[9.2893488,45.6170775],[9.2893427,45.6170419],[9.2893365,45.6170064],[9.2893304,45.6169708],[9.2893242,45.6169353],[9.2893181,45.6168997],[9.2893119,45.6168642],[9.2893058,45.6168286],[9.2892997,45.6167931],[9.2892935,45.6167575],[9.2892874,45.616722],[9.2892812,45.6166864],[9.2892751,45.6166509],[9.2892689,45.6166153],[9.2892628,45.6165798],[9.2892566,45.6165442],[9.2892505,45.6165087],[9.2892443,45.6164731],[9.2892382,45.6164376],[9.289232,45.616402],[9.2892259,45.6163665],[9.2892197,45.6163309],[9.2892136,45.6162954],[9.2892075,45.6162598],[9.2892013,45.6162243],[9.2891952,45.6161887],[9.289189,45.6161532],[9.2891829,45.6161176],[9.2891767,45.6160821],[9.2891706,45.6160465],[9.2891644,45.616011],[9.2891583,45.6159754],[9.2891521,45.6159399],[9.289146,45.6159043],[9.2891398,45.6158688],[9.2891337,45.6158332],[9.2891275,45.6157977],[9.2891214,45.6157621],[9.2891154,45.6157265],[9.2891094,45.6156908],[9.2891034,45.6156552],[9.2890974,45.6156196],[9.2890914,45.615584],[9.2890854,45.6155483],[9.2890793,45.6155127],[9.2890733,45.6154771],[9.2890673,45.6154414],[9.2890613,45.6154058],[9.2890553,45.6153702],[9.2890493,45.6153345],[9.2890433,45.6152989],[9.2890373,45.6152633],[9.2890313,45.6152277],[9.2890253,45.615192],[9.2890193,45.6151564],[9.2890133,45.6151208],[9.2890072,45.6150851],[9.2890012,45.6150495],[9.2889952,45.6150139],[9.2889892,45.6149783],[9.2889832,45.6149426],[9.2889772,45.614907],[9.2889712,45.6148714],[9.2889652,45.6148357],[9.2889592,45.6148001],[9.2889532,45.6147645],[9.2889472,45.6147288],[9.2889412,45.6146932],[9.2889351,45.6146576],[9.2889291,45.614622],[9.2889231,45.6145863],[9.2889171,45.6145507],[9.2889111,45.6145151],[9.2889051,45.6144794],[9.2888991,45.6144438],[9.2888931,45.6144082],[9.2888871,45.6143725],[9.2888811,45.6143369],[9.2888751,45.6143013],[9.2888691,45.6142657],[9.288863,45.61423],[9.288857,45.6141944],[9.288851,45.6141588],[9.288845,45.6141231],[9.288839,45.6140875],[9.288833,45.6140519],[9.288827,45.6140163],[9.288821,45.6139806],[9.288815,45.613945],[9.288809,45.6139094],[9.288803,45.6138737],[9.288797,45.6138381],[9.2887909,45.6138025],[9.2887849,45.6137668],[9.2887789,45.6137312],[9.2887729,45.6136956],[9.2887669,45.61366],[9.2887609,45.6136243],[9.2887549,45.6135887],[9.2887496,45.6135544],[9.2887443,45.6135201],[9.2887391,45.6134859],[9.2887338,45.6134516],[9.2887285,45.6134173],[9.2887232,45.613383],[9.2887179,45.6133487],[9.2887127,45.6133145],[9.2887074,45.6132802],[9.2887021,45.6132459],[9.2886938,45.6132111],[9.2886854,45.6131762],[9.2886771,45.6131413],[9.2886687,45.6131065],[9.288659,45.6130746],[9.2886494,45.6130426],[9.2886415,45.6130083],[9.2886336,45.612974],[9.2886257,45.6129397],[9.2886177,45.6129054],[9.2886098,45.6128711],[9.2886019,45.6128368],[9.288594,45.6128025],[9.2885861,45.6127682],[9.2885782,45.6127339],[9.2885702,45.6126996],[9.2885623,45.6126653],[9.2885544,45.612631],[9.2885465,45.6125967],[9.288533,45.6125624],[9.2885194,45.6125281],[9.2885059,45.6124938],[9.2884923,45.6124595],[9.2884788,45.6124252],[9.2884653,45.6123908],[9.2884517,45.6123565],[9.2884382,45.6123222],[9.2884247,45.6122879],[9.2884111,45.6122536],[9.2883976,45.6122193],[9.288384,45.612185],[9.2883705,45.6121507],[9.288357,45.6121164],[9.2883434,45.6120821],[9.2883299,45.6120477],[9.2883164,45.6120134],[9.2883028,45.6119791],[9.2882893,45.6119448],[9.2882757,45.6119105],[9.2882622,45.6118762],[9.2882402,45.6118437],[9.2882182,45.6118113],[9.2881962,45.6117788],[9.2881742,45.6117464],[9.2881522,45.6117139],[9.2881302,45.6116814],[9.2881082,45.611649],[9.2880862,45.6116165],[9.2880642,45.6115841],[9.2880423,45.6115516],[9.2880203,45.6115191],[9.2879983,45.6114867],[9.2879763,45.6114542],[9.2879543,45.6114218],[9.2879323,45.6113893],[9.2879103,45.6113568],[9.2878883,45.6113244],[9.2878663,45.6112919],[9.2878443,45.6112595],[9.2878223,45.611227],[9.2877911,45.6111984],[9.28776,45.6111698],[9.2877288,45.6111412],[9.2876976,45.6111126],[9.2876665,45.611084],[9.2876353,45.6110555],[9.2876041,45.6110269],[9.287573,45.6109983],[9.2875418,45.6109697],[9.2875106,45.6109411],[9.2874795,45.6109125],[9.2874483,45.6108839],[9.2874171,45.6108553],[9.287386,45.6108267],[9.2873548,45.6107981],[9.2873236,45.6107696],[9.2872925,45.610741],[9.2872613,45.6107124],[9.2872301,45.6106838],[9.287199,45.6106552],[9.2871678,45.6106266],[9.2871242,45.6106078],[9.2870805,45.6105891],[9.2870369,45.6105703],[9.2869932,45.6105515],[9.2869496,45.6105328],[9.2869059,45.610514],[9.2868623,45.6104953],[9.2868186,45.6104765],[9.286775,45.6104577],[9.2867313,45.610439],[9.2866877,45.6104202],[9.2866441,45.6104014],[9.2866004,45.6103827],[9.2865568,45.6103639],[9.2865131,45.6103451],[9.2864695,45.6103264],[9.2864258,45.6103076],[9.2863822,45.6102889],[9.2863385,45.6102701],[9.2862949,45.6102513],[9.2862512,45.6102326],[9.2862076,45.6102138],[9.2861604,45.6102024],[9.2861132,45.6101909],[9.286066,45.6101795],[9.2860188,45.610168],[9.2859716,45.6101566],[9.2859244,45.6101451],[9.2858772,45.6101337],[9.28583,45.6101222],[9.2857828,45.6101108],[9.2857355,45.6100993],[9.2856883,45.6100879],[9.2856411,45.6100765],[9.2855939,45.610065],[9.2855467,45.6100536],[9.2854995,45.6100421],[9.2854523,45.6100307],[9.2854051,45.6100192],[9.2853579,45.6100078],[9.2853107,45.6099963],[9.2852635,45.6099849],[9.2852124,45.6099827],[9.2851613,45.6099806],[9.2851102,45.6099784],[9.2850591,45.6099762],[9.285008,45.6099741],[9.2849569,45.6099719],[9.2849058,45.6099697],[9.2848547,45.6099676],[9.2848036,45.6099654],[9.2847524,45.6099632],[9.2847013,45.609961],[9.2846502,45.6099589],[9.2845991,45.6099567],[9.284548,45.6099545],[9.2844969,45.6099524],[9.2844458,45.6099502],[9.2843947,45.609948],[9.2843436,45.6099459],[9.2842925,45.6099437],[9.2842428,45.6099461],[9.284193,45.6099485],[9.2841433,45.6099508],[9.2840935,45.6099532],[9.2840438,45.6099556],[9.283994,45.609958],[9.2839443,45.6099604],[9.2838945,45.6099628],[9.2838448,45.6099651],[9.283795,45.6099675],[9.2837453,45.6099699],[9.2836955,45.6099785],[9.2836457,45.6099871],[9.2835959,45.6099956],[9.2835461,45.6100042],[9.2834963,45.6100128],[9.2834465,45.6100214],[9.2833967,45.6100299],[9.2833468,45.6100385],[9.283297,45.6100471],[9.2832472,45.6100557],[9.2831974,45.6100643],[9.2831476,45.6100728],[9.2830978,45.6100814],[9.283048,45.61009],[9.2830047,45.6101048],[9.2829614,45.6101197],[9.2829181,45.6101345],[9.2828748,45.6101494],[9.2828315,45.6101642],[9.2827882,45.610179],[9.2827449,45.6101939],[9.2827016,45.6102087],[9.2826583,45.6102236],[9.282615,45.6102384],[9.2825746,45.6102565],[9.2825343,45.6102746],[9.2824939,45.6102928],[9.2824536,45.6103109],[9.2824132,45.610329],[9.2823728,45.6103471],[9.2823325,45.6103652],[9.2822921,45.6103834],[9.2822518,45.6104015],[9.2822114,45.6104196],[9.282173,45.6104418],[9.2821347,45.6104641],[9.2820963,45.6104863],[9.282058,45.6105085],[9.2820196,45.6105308],[9.2819813,45.610553],[9.2819429,45.6105752],[9.2819046,45.6105975],[9.2818662,45.6106197],[9.2818307,45.6106432],[9.2817952,45.6106666],[9.2817597,45.6106901],[9.2817242,45.6107135],[9.2816886,45.610737],[9.2816531,45.6107605],[9.2816176,45.6107839],[9.2815821,45.6108074],[9.2815466,45.6108308],[9.2815111,45.6108543],[9.2814793,45.6108819],[9.2814475,45.6109095],[9.2814158,45.6109371],[9.281384,45.6109647],[9.2813522,45.6109922],[9.2813204,45.6110198],[9.2812887,45.6110474],[9.2812569,45.611075],[9.2812251,45.6111026],[9.281201,45.6111302],[9.2811769,45.6111578],[9.2811528,45.6111854],[9.2811287,45.611213],[9.2811045,45.6112406],[9.2810804,45.6112682],[9.2810563,45.6112958],[9.2810322,45.6113234],[9.2810081,45.611351],[9.2809813,45.6113816],[9.2809546,45.6114121],[9.2809278,45.6114427],[9.280901,45.6114732],[9.2808742,45.6115038],[9.2808475,45.6115343],[9.2808207,45.6115649],[9.2808059,45.6115983],[9.2807911,45.6116316],[9.2807763,45.6116649],[9.2807615,45.6116983],[9.2807467,45.6117316],[9.2807319,45.611765],[9.2807171,45.6117984],[9.2807023,45.6118317],[9.2806875,45.611865],[9.2806727,45.6118984],[9.2806579,45.6119317],[9.2806431,45.6119651],[9.2806308,45.6119979],[9.2806185,45.6120307],[9.2806061,45.6120634],[9.2805938,45.6120962],[9.2805815,45.612129],[9.2805691,45.6121617],[9.2805568,45.6121945],[9.2805445,45.6122273],[9.2805345,45.6122612],[9.2805245,45.6122951],[9.2805145,45.612329],[9.2805045,45.6123629],[9.2804945,45.6123968],[9.2804845,45.6124307],[9.2804745,45.6124646],[9.2804645,45.6124985],[9.2804545,45.6125324],[9.2804528,45.6125669],[9.280451,45.6126013],[9.2804493,45.6126358],[9.2804476,45.6126702],[9.2804458,45.6127047],[9.2804441,45.6127391],[9.2804424,45.6127736],[9.2804406,45.612808],[9.2804389,45.6128425],[9.2804382,45.6128775],[9.2804375,45.6129124],[9.2804368,45.6129474],[9.2804361,45.6129824],[9.2804355,45.6130173],[9.2804348,45.6130523],[9.2804341,45.6130872],[9.2804334,45.6131222],[9.2804342,45.6131577],[9.2804349,45.6131932],[9.2804357,45.6132287],[9.2804365,45.6132642],[9.2804372,45.6132997],[9.280438,45.6133352],[9.2804388,45.6133707],[9.2804395,45.6134062],[9.2804403,45.6134417],[9.2804409,45.6134692],[9.2804415,45.6134967],[9.2804421,45.6135242],[9.2804471,45.6135593],[9.2804521,45.6135945],[9.280457,45.6136296],[9.280462,45.6136647],[9.280467,45.6136999],[9.280472,45.613735],[9.280477,45.6137702],[9.2804819,45.6138053],[9.2804869,45.6138404],[9.2804919,45.6138756],[9.2804969,45.6139107],[9.2805013,45.6139459],[9.2805047,45.6139811],[9.280507,45.6140164],[9.2805083,45.6140483],[9.2805087,45.6140801],[9.2805084,45.6141121],[9.2805074,45.614144],[9.2805056,45.6141761],[9.2805031,45.6142082],[9.2804998,45.6142437],[9.2804957,45.6142792],[9.280491,45.6143147],[9.2804857,45.6143503],[9.2804798,45.614386],[9.2804735,45.6144216],[9.2804667,45.6144573],[9.2804597,45.614493],[9.2804525,45.6145288],[9.2804451,45.6145645],[9.2804376,45.6146003],[9.2804301,45.614636],[9.2804228,45.6146718],[9.2804157,45.6147075],[9.2804088,45.6147432],[9.2804022,45.6147789],[9.2803961,45.6148145],[9.2803905,45.6148501],[9.2803855,45.6148857],[9.2803811,45.6149213],[9.2803773,45.6149567],[9.2803744,45.6149922],[9.2803723,45.6150275],[9.280371,45.6150628],[9.2803706,45.6150981],[9.2803712,45.6151333],[9.2803727,45.6151684],[9.2803752,45.6152034],[9.2803787,45.6152384],[9.2803823,45.6152649],[9.2803829,45.6152915],[9.2803841,45.6153266],[9.2803852,45.6153616],[9.2803864,45.6153967],[9.2803875,45.6154317],[9.2803887,45.6154668],[9.2803898,45.6155019],[9.280391,45.6155369],[9.2803921,45.615572],[9.2803932,45.6156071],[9.2803947,45.6156478],[9.2803989,45.6156878],[9.2804026,45.6157221],[9.2804064,45.6157563],[9.2804101,45.6157905],[9.2804138,45.6158248],[9.2804175,45.615859],[9.2804213,45.6158932],[9.2804252,45.6159291],[9.28043,45.6159659],[9.2804346,45.6160011],[9.2804391,45.6160364],[9.2804437,45.6160716],[9.2804483,45.6161069],[9.2804529,45.6161421],[9.2804575,45.6161773],[9.2804622,45.6162137],[9.2804676,45.6162504],[9.2804727,45.6162859],[9.2804779,45.6163214],[9.2804831,45.6163569],[9.2804883,45.6163925],[9.2804934,45.616428],[9.2804986,45.6164635],[9.2805038,45.616499],[9.280509,45.6165345],[9.2805141,45.61657],[9.2805193,45.6166055],[9.2805245,45.6166411],[9.2805296,45.6166766],[9.2805348,45.6167121],[9.28054,45.6167476],[9.2805452,45.6167831],[9.2805503,45.6168186],[9.2805555,45.6168542],[9.2805607,45.6168897],[9.2805659,45.6169252],[9.280571,45.6169607],[9.2805762,45.6169962],[9.2805814,45.6170317],[9.2805866,45.6170672],[9.2805917,45.6171028],[9.2805969,45.6171383],[9.2806021,45.6171738],[9.2806072,45.6172093],[9.2806124,45.6172448],[9.2806176,45.6172803],[9.2806228,45.6173159],[9.2806279,45.6173514],[9.2806331,45.6173869],[9.2806383,45.6174224],[9.2806435,45.6174579],[9.2806486,45.6174934],[9.2806538,45.6175289],[9.280659,45.6175645],[9.2806641,45.6176],[9.2806693,45.6176355],[9.2806745,45.617671],[9.2806797,45.6177065],[9.2806848,45.617742],[9.28069,45.6177776],[9.2806952,45.6178131],[9.2807004,45.6178486],[9.2807055,45.6178841],[9.2807107,45.6179196],[9.2807159,45.6179551],[9.2807211,45.6179906],[9.2807262,45.6180262],[9.2807314,45.6180617],[9.2807366,45.6180972],[9.2807417,45.6181327],[9.2807469,45.6181682],[9.2807521,45.6182037],[9.2807573,45.6182393],[9.2807624,45.6182748],[9.2807676,45.6183103],[9.2807728,45.6183458],[9.280778,45.6183813],[9.2807831,45.6184168],[9.2807883,45.6184523],[9.2807935,45.6184879],[9.2807986,45.6185234],[9.2808038,45.6185589],[9.280809,45.6185944],[9.2808142,45.6186299],[9.2808193,45.6186654],[9.2808245,45.618701],[9.2808297,45.6187365],[9.2808349,45.618772],[9.28084,45.6188075],[9.2808452,45.618843],[9.2808504,45.6188785],[9.2808556,45.618914],[9.2808607,45.6189496],[9.2808661,45.6189863],[9.2808693,45.619005]]}}]}