{"type":"FeatureCollection","features":[{"type":"Feature","properties":{"layout":"monza-oval","source":"OpenStreetMap contributors (ODbL), routed by tools/route-layouts.mjs"},"geometry":{"type":"LineString","coordinates":[[9.2811756,45.618979],[9.2812785,45.6195721],[9.2814088,45.6206107],[9.2814693,45.6210889],[9.2814831,45.6211988],[9.2816508,45.6216589],[9.2816891,45.6217639],[9.2817066,45.621816],[9.2817228,45.6218694],[9.2817377,45.6219247],[9.2817481,45.6219744],[9.2817572,45.6220259],[9.2817635,45.622068],[9.2817884,45.6222763],[9.2818031,45.6223784],[9.2818201,45.622502],[9.2818467,45.6226721],[9.2818596,45.6227443],[9.2818814,45.622848],[9.2819041,45.6229438],[9.2819197,45.6230008],[9.2819512,45.6231059],[9.2819743,45.6231768],[9.2819988,45.6232486],[9.2820285,45.6233333],[9.2820596,45.623419],[9.282112,45.6235555],[9.2821442,45.6236329],[9.2821617,45.6236725],[9.2821805,45.6237131],[9.2821975,45.6237484],[9.2822159,45.6237847],[9.2822554,45.6238591],[9.2823397,45.624009],[9.2823919,45.6240955],[9.2824201,45.6241392],[9.2824509,45.6241829],[9.2824855,45.6242292],[9.2825227,45.6242754],[9.2825555,45.6243145],[9.2826076,45.6243725],[9.2826435,45.6244125],[9.2826907,45.6244626],[9.2827419,45.6245136],[9.2827991,45.6245712],[9.2828603,45.6246297],[9.282958,45.6247199],[9.2829903,45.6247484],[9.283059,45.6248063],[9.2831331,45.6248642],[9.2831839,45.6249027],[9.2832693,45.6249613],[9.28333,45.625001],[9.2833978,45.6250428],[9.2834664,45.6250831],[9.2835249,45.625116],[9.2835888,45.6251507],[9.2836402,45.6251778],[9.283697,45.6252068],[9.2837849,45.6252497],[9.2838729,45.6252909],[9.2839985,45.6253468],[9.2840692,45.6253771],[9.2841339,45.6254032],[9.2842012,45.6254292],[9.2842623,45.6254522],[9.2843262,45.6254751],[9.2843937,45.625498],[9.2844727,45.6255238],[9.2846318,45.6255725],[9.284775,45.6256146],[9.2848687,45.6256387],[9.2849679,45.6256628],[9.2850543,45.6256815],[9.2851068,45.6256919],[9.2851835,45.6257063],[9.2852412,45.6257157],[9.2853336,45.6257297],[9.2854185,45.6257416],[9.285491,45.62575],[9.2855596,45.6257569],[9.2856268,45.6257628],[9.2857072,45.6257678],[9.2857863,45.6257719],[9.285845,45.6257739],[9.2859662,45.6257756],[9.2860294,45.6257761],[9.2860967,45.6257755],[9.2861712,45.6257739],[9.286298,45.6257696],[9.2863643,45.6257666],[9.2864456,45.6257611],[9.2865008,45.6257563],[9.2865621,45.6257511],[9.2866865,45.6257382],[9.2867435,45.6257313],[9.2868635,45.6257142],[9.2869769,45.625697],[9.2870554,45.6256846],[9.2871773,45.6256634],[9.2872973,45.6256409],[9.2873727,45.6256268],[9.2874638,45.6256085],[9.2875406,45.6255916],[9.2876133,45.6255748],[9.2876841,45.6255576],[9.2877509,45.6255403],[9.2878091,45.6255239],[9.2878882,45.6254998],[9.287987,45.6254669],[9.2880533,45.6254438],[9.2881341,45.6254145],[9.2882133,45.6253853],[9.288289,45.6253562],[9.2884104,45.6253077],[9.2884789,45.6252783],[9.2885554,45.6252426],[9.2885965,45.625222],[9.2886562,45.6251904],[9.2886962,45.6251681],[9.2887399,45.6251422],[9.2888113,45.6250972],[9.2888898,45.6250463],[9.2889369,45.6250142],[9.2889907,45.6249751],[9.2891312,45.6248696],[9.2893082,45.6247233],[9.2894799,45.6245695],[9.2896623,45.6243556],[9.2897834,45.6241559],[9.2900217,45.6237629],[9.2902041,45.6229675],[9.2901987,45.6222622],[9.2901129,45.6214968],[9.2900188,45.6209526],[9.2891214,45.6157621],[9.2887549,45.6135887],[9.2887021,45.6132459],[9.2886687,45.6131065],[9.2886494,45.6130426],[9.2885465,45.6125967],[9.2882622,45.6118762],[9.2878223,45.611227],[9.2871678,45.6106266],[9.2862076,45.6102138],[9.2852635,45.6099849],[9.2842925,45.6099437],[9.2837453,45.6099699],[9.283048,45.61009],[9.282615,45.6102384],[9.2822114,45.6104196],[9.2818662,45.6106197],[9.2815111,45.6108543],[9.2812251,45.6111026],[9.2810081,45.611351],[9.2808207,45.6115649],[9.2806431,45.6119651],[9.2805445,45.6122273],[9.2804545,45.6125324],[9.2804389,45.6128425],[9.2804334,45.6131222],[9.2804403,45.6134417],[9.2804421,45.6135242],[9.2805118,45.6140161],[9.2805386,45.6142057],[9.2806903,45.6152515],[9.2807029,45.6156372],[9.2807327,45.6159111],[9.2807694,45.616193],[9.2811729,45.6189632],[9.2811756,45.618979]]}}]}