{"type":"FeatureCollection","features":[{"type":"Feature","properties":{"layout":"suzuka-east","source":"OpenStreetMap contributors (ODbL), routed by tools/route-layouts.mjs"},"geometry":{"type":"LineString","coordinates":[[136.5402874,34.843347],[136.5411031,34.8425349],[136.5429413,34.8406874],[136.5431289,34.8404982],[136.5432316,34.8403901],[136.5433158,34.8402661],[136.5433642,34.8401698],[136.5433883,34.8401027],[136.5434021,34.8400493],[136.5434135,34.8399727],[136.543416,34.8399191],[136.5434079,34.8398281],[136.5433894,34.8397415],[136.5433643,34.8396619],[136.5433105,34.8395159],[136.5432043,34.8392618],[136.543145,34.8391773],[136.5430912,34.8391119],[136.5430056,34.8390522],[136.542909,34.8390054],[136.542804,34.8389728],[136.5426938,34.8389554],[136.5425815,34.8389536],[136.5424706,34.8389676],[136.5423642,34.8389969],[136.5422654,34.8390407],[136.5421772,34.8390976],[136.5420866,34.8391762],[136.5419278,34.8393919],[136.5412266,34.8402887],[136.5410898,34.8404465],[136.5410085,34.8405199],[136.5409147,34.8405826],[136.5408106,34.840633],[136.5406984,34.8406699],[136.5405807,34.8406927],[136.5404601,34.8407007],[136.5401689,34.8407053],[136.5400593,34.8407134],[136.539952,34.8407339],[136.5398492,34.8407663],[136.5397528,34.84081],[136.5396647,34.8408642],[136.5395865,34.8409278],[136.5395197,34.8409997],[136.5394656,34.8410784],[136.5394252,34.8411624],[136.5393896,34.841251],[136.5392329,34.8417354],[136.5391988,34.8418281],[136.53915,34.8419162],[136.5390873,34.8419982],[136.5390119,34.8420727],[136.5389251,34.8421382],[136.5388284,34.8421937],[136.5387903,34.8422098],[136.5387235,34.8422381],[136.5386124,34.8422706],[136.538497,34.8422907],[136.5383794,34.842298],[136.5379594,34.8423083],[136.5378914,34.8423121],[136.5378051,34.842317],[136.5376625,34.8423497],[136.5375371,34.8423962],[136.5374126,34.8424579],[136.5373035,34.8425309],[136.537198,34.8426283],[136.537117,34.8427239],[136.537058,34.8428299],[136.5370227,34.8429427],[136.5370124,34.8430589],[136.5370273,34.8431748],[136.5370669,34.8432867],[136.5371097,34.8433764],[136.5373044,34.843801],[136.5373434,34.8439047],[136.5373635,34.844012],[136.5373643,34.8441206],[136.5373458,34.8442282],[136.5373084,34.8443323],[136.5372528,34.8444308],[136.5371803,34.8445217],[136.5370924,34.8446028],[136.536991,34.8446726],[136.5368179,34.8447568],[136.5366143,34.8448406],[136.536454,34.8449],[136.5363999,34.8449279],[136.5363759,34.8449476],[136.5363526,34.8449766],[136.5363265,34.8450221],[136.5362831,34.8451371],[136.5362621,34.8451989],[136.5362143,34.8453478],[136.5361996,34.845405],[136.53619,34.8454634],[136.5361868,34.8455419],[136.5361879,34.8455703],[136.5362024,34.8456388],[136.5362432,34.8457293],[136.5362896,34.8458079],[136.5363485,34.8458696],[136.5364073,34.8459158],[136.5364813,34.8459651],[136.5365631,34.846008],[136.5366327,34.8460334],[136.5367319,34.8460591],[136.5368093,34.846069],[136.5368458,34.8460672],[136.5369554,34.8460536],[136.5370183,34.8460421],[136.5371993,34.8459952],[136.5373221,34.8459558],[136.5375931,34.8458319],[136.5378166,34.8457008],[136.5379801,34.8455844],[136.5381516,34.8454501],[136.5383728,34.8452452],[136.5386784,34.8449488],[136.5402874,34.843347]]}}]}