{"type":"FeatureCollection","features":[{"type":"Feature","properties":{"layout":"suzuka-south","source":"OpenStreetMap contributors (ODbL), routed by tools/route-layouts.mjs"},"geometry":{"type":"LineString","coordinates":[[136.5267869,34.8419001],[136.5268329,34.8427483],[136.526837,34.8427853],[136.5268454,34.8428186],[136.5268579,34.8428497],[136.5268741,34.8428699],[136.5268902,34.8428838],[136.5269164,34.8429018],[136.5269442,34.8429143],[136.526982,34.8429224],[136.5270132,34.8429253],[136.5270446,34.8429254],[136.527076,34.8429176],[136.5271151,34.8428966],[136.5271369,34.8428779],[136.5272805,34.8426956],[136.5273079,34.8426743],[136.5273362,34.8426605],[136.52737,34.842655],[136.5274107,34.8426497],[136.5274577,34.842653],[136.5274983,34.8426672],[136.5276968,34.8427761],[136.5284001,34.8432074],[136.528655,34.8433615],[136.5288015,34.8434497],[136.5288632,34.8434797],[136.528938,34.8435123],[136.5290005,34.8435307],[136.5290498,34.8435419],[136.5292229,34.8435778],[136.5294707,34.8436157],[136.529525,34.8436128],[136.5295626,34.8436042],[136.5295923,34.843595],[136.5296229,34.843572],[136.5296411,34.8435514],[136.5296491,34.8435351],[136.5296581,34.8435017],[136.5296606,34.843471],[136.5296509,34.8434368],[136.5296358,34.843406],[136.5296106,34.8433799],[136.5295603,34.8433582],[136.5295233,34.8433484],[136.5294034,34.8433244],[136.5293141,34.8432984],[136.5292129,34.8432689],[136.5290945,34.8432233],[136.5290134,34.8431799],[136.5289367,34.843132],[136.5288366,34.8430588],[136.5287262,34.8429679],[136.5286219,34.8428619],[136.5285722,34.8428073],[136.528552,34.8427715],[136.5285488,34.8427348],[136.5285505,34.8427059],[136.528558,34.8426794],[136.5285728,34.8426573],[136.5286004,34.8426296],[136.5286578,34.8425887],[136.5286908,34.8425639],[136.528706,34.8425502],[136.5287173,34.8425333],[136.5287248,34.8425127],[136.5287246,34.8424952],[136.5287224,34.8424529],[136.5286627,34.8421573],[136.5286201,34.8419614],[136.5285812,34.8418218],[136.5285294,34.8417141],[136.5284928,34.841646],[136.5284358,34.8415565],[136.5283887,34.8414969],[136.5283537,34.8414585],[136.5283249,34.841432],[136.5282843,34.8414039],[136.5282407,34.8413885],[136.5281982,34.8413917],[136.5281673,34.8414002],[136.5281454,34.8414163],[136.5281272,34.8414306],[136.5281176,34.8414666],[136.5281159,34.841499],[136.5282479,34.8422704],[136.5282554,34.8423233],[136.5282508,34.8423697],[136.5282376,34.8424061],[136.5282096,34.8424565],[136.5281881,34.842483],[136.5281622,34.8425049],[136.5281263,34.842525],[136.5280824,34.8425406],[136.5280395,34.8425498],[136.5280042,34.8425558],[136.5279684,34.8425586],[136.527931,34.842559],[136.5278872,34.8425495],[136.5278485,34.8425391],[136.5278022,34.842515],[136.5277627,34.8424811],[136.5273713,34.8420748],[136.5273441,34.8420338],[136.5273343,34.8420138],[136.5273285,34.8419825],[136.5273398,34.8419477],[136.5273612,34.8419131],[136.527484,34.8417355],[136.527496,34.8417009],[136.5274972,34.8416725],[136.5274925,34.8416406],[136.5274811,34.8416122],[136.5274584,34.8415848],[136.5272035,34.8413958],[136.5271693,34.8413607],[136.5271478,34.8413169],[136.5271368,34.8412736],[136.5271356,34.841226],[136.5271581,34.8411729],[136.5272362,34.8410463],[136.5272604,34.8409971],[136.5272721,34.840957],[136.5272709,34.8409236],[136.527262,34.8408982],[136.5272464,34.8408732],[136.5272237,34.8408501],[136.5271945,34.8408334],[136.5271474,34.8408204],[136.5270925,34.8408199],[136.5270261,34.840831],[136.5269615,34.84085],[136.5268857,34.840886],[136.5268558,34.8409051],[136.5268313,34.8409272],[136.5267982,34.8409674],[136.5267707,34.8410057],[136.5267594,34.841063],[136.5267854,34.8418723],[136.5267869,34.8419001]]}}]}