{"type":"FeatureCollection","features":[{"type":"Feature","properties":{"layout":"suzuka-west","source":"OpenStreetMap contributors (ODbL), routed by tools/route-layouts.mjs"},"geometry":{"type":"LineString","coordinates":[[136.5263099,34.8455798],[136.525971,34.8456817],[136.5257343,34.8457709],[136.5255023,34.845881],[136.5253041,34.8459911],[136.5250807,34.8461423],[136.5249542,34.8462491],[136.5248435,34.8463527],[136.5247546,34.8464419],[136.524657,34.8465513],[136.5245356,34.8467173],[136.5244264,34.8468951],[136.5241025,34.8475132],[136.5238013,34.8480757],[136.5237629,34.8481297],[136.523724,34.8481719],[136.5236749,34.8482144],[136.5236192,34.8482547],[136.5235518,34.8482945],[136.5234864,34.8483222],[136.52341,34.8483472],[136.5233284,34.8483651],[136.5231568,34.8483821],[136.5229353,34.8483754],[136.5227931,34.8483635],[136.5226323,34.8483383],[136.5224387,34.8482967],[136.5223248,34.8482604],[136.5222185,34.8482193],[136.5221646,34.8481938],[136.5221058,34.8481529],[136.5220539,34.8481003],[136.5219983,34.848027],[136.5219596,34.8479554],[136.5219266,34.8478592],[136.5219196,34.8477572],[136.5219288,34.8476673],[136.5219605,34.8475648],[136.5220008,34.8474756],[136.5220765,34.8473643],[136.5221328,34.8473],[136.5221733,34.8472624],[136.5223235,34.8471229],[136.522497,34.846997],[136.5226777,34.8468731],[136.5230142,34.8466554],[136.5232444,34.8465161],[136.5234436,34.8464031],[136.5239199,34.8461483],[136.5243525,34.8459379],[136.5247603,34.8457589],[136.5250832,34.8456294],[136.5251751,34.8455925],[136.5254469,34.8454933],[136.5258057,34.8453696],[136.5263556,34.8452096],[136.5273092,34.8449323],[136.5285189,34.8445803],[136.5304341,34.8440256],[136.5308102,34.8439151],[136.5309209,34.8438864],[136.5309926,34.843873],[136.53113,34.8438616],[136.5312753,34.8438699],[136.5314191,34.8438962],[136.5316005,34.843941],[136.5317624,34.8439844],[136.531932,34.8440359],[136.5320731,34.8440878],[136.5322132,34.8441382],[136.5323319,34.8441932],[136.5325562,34.8443103],[136.5326904,34.8443849],[136.5327906,34.8444469],[136.5329942,34.8445872],[136.5334189,34.8449128],[136.5342192,34.8455197],[136.5342527,34.8455436],[136.5342888,34.8455666],[136.5343272,34.8455886],[136.5343675,34.8456092],[136.5344091,34.845628],[136.5344516,34.8456449],[136.5344947,34.8456595],[136.5345379,34.8456715],[136.5345807,34.8456807],[136.5346227,34.8456867],[136.5346635,34.8456893],[136.5347027,34.8456881],[136.5347397,34.8456829],[136.5347742,34.8456733],[136.5348058,34.8456592],[136.534834,34.8456402],[136.5348583,34.8456159],[136.5348784,34.8455862],[136.5349998,34.8453638],[136.5350695,34.8452349],[136.5350892,34.8451878],[136.5350965,34.845152],[136.5350929,34.8451206],[136.5350801,34.8450893],[136.5350619,34.8450624],[136.5350213,34.845034],[136.5349932,34.8450098],[136.5349595,34.8449903],[136.5349214,34.8449745],[136.53488,34.8449616],[136.5348367,34.8449506],[136.5347925,34.8449406],[136.5347487,34.8449307],[136.5347065,34.84492],[136.5346672,34.8449076],[136.5344848,34.8448418],[136.5343214,34.8447728],[136.5341516,34.8446868],[136.5340146,34.8446015],[136.5339311,34.8445397],[136.5338709,34.8444919],[136.5338132,34.8444459],[136.5336663,34.8443214],[136.5326951,34.8433571],[136.5326519,34.8433141],[136.5325835,34.8432615],[136.5325225,34.8432399],[136.5310945,34.8431372],[136.53098,34.843136],[136.5309253,34.8431509],[136.530876,34.8431754],[136.5308345,34.8432082],[136.5308027,34.8432476],[136.5307824,34.8432919],[136.5307702,34.8433394],[136.5302551,34.8454878],[136.5301992,34.8457251],[136.5301787,34.8458653],[136.5301811,34.8459783],[136.5302047,34.8460941],[136.5302735,34.8462695],[136.5303867,34.8464675],[136.5306381,34.8469373],[136.5306609,34.8470058],[136.5306508,34.8470774],[136.53062,34.8471329],[136.5305695,34.8471782],[136.5305029,34.8472067],[136.5304283,34.8472173],[136.5303564,34.8472083],[136.5302862,34.8471808],[136.5302288,34.8471357],[136.5301803,34.847084],[136.5298862,34.846679],[136.5298262,34.8466038],[136.5296327,34.8463536],[136.5294256,34.8460793],[136.5293051,34.8459568],[136.5292017,34.8458568],[136.5290474,34.8457295],[136.5289619,34.8456656],[136.5288721,34.845613],[136.5286032,34.8454818],[136.5283426,34.8454158],[136.5280368,34.8453854],[136.5278363,34.8453705],[136.5276321,34.8453631],[136.5274819,34.8453655],[136.5272976,34.8453798],[136.5270275,34.8454099],[136.526649,34.8454858],[136.5263099,34.8455798]]}}]}